{
  "type": "FeatureCollection",
  "features": [
    {
      "id": "0",
      "type": "Feature",
      "properties": {
        "osm_id": 1307541385.0,
        "name": "IIT Tirupati Indoor",
        "type": null
      },
      "geometry": {
        "type": "Polygon",
        "coordinates": [
          [
            [
              79.59284816292241,
              13.709958432170145
            ],
            [
              79.59315396292241,
              13.709961532170144
            ],
            [
              79.59315926292241,
              13.709471232170145
            ],
            [
              79.5928534629224,
              13.709468132170144
            ],
            [
              79.59284816292241,
              13.709958432170145
            ]
          ]
        ]
      }
    },
    {
      "id": "1",
      "type": "Feature",
      "properties": {
        "osm_id": 1307541389.0,
        "name": "Admin Block",
        "type": "university"
      },
      "geometry": {
        "type": "Polygon",
        "coordinates": [
          [
            [
              79.59388440343128,
              13.714845683887043
            ],
            [
              79.59392430343127,
              13.714550083887044
            ],
            [
              79.59379170343126,
              13.714533183887044
            ],
            [
              79.59385150343127,
              13.714090383887044
            ],
            [
              79.59399840343127,
              13.714109183887043
            ],
            [
              79.59404440343127,
              13.713768583887044
            ],
            [
              79.59376770343127,
              13.713733283887043
            ],
            [
              79.59374360343126,
              13.713911283887043
            ],
            [
              79.59360360343128,
              13.713893483887043
            ],
            [
              79.59356900343127,
              13.714149383887044
            ],
            [
              79.59364160343127,
              13.714158583887043
            ],
            [
              79.59363810343127,
              13.714184783887044
            ],
            [
              79.59370580343128,
              13.714193383887043
            ],
            [
              79.59368500343128,
              13.714346983887044
            ],
            [
              79.59362760343127,
              13.714339683887044
            ],
            [
              79.59362250343128,
              13.714377683887044
            ],
            [
              79.59354040343128,
              13.714367183887044
            ],
            [
              79.59350480343127,
              13.714630283887043
            ],
            [
              79.59365230343127,
              13.714649083887043
            ],
            [
              79.59363010343127,
              13.714813283887043
            ],
            [
              79.59388440343128,
              13.714845683887043
            ]
          ]
        ]
      }
    },
    {
      "id": "2",
      "type": "Feature",
      "properties": {
        "osm_id": 1307541399.0,
        "name": null,
        "type": null
      },
      "geometry": {
        "type": "Polygon",
        "coordinates": [
          [
            [
              79.59164399905474,
              13.717920941572796
            ],
            [
              79.59192289905474,
              13.717952741572796
            ],
            [
              79.59196839905475,
              13.717576041572796
            ],
            [
              79.59168959905475,
              13.717544241572796
            ],
            [
              79.59164399905474,
              13.717920941572796
            ]
          ]
        ]
      }
    },
    {
      "id": "3",
      "type": "Feature",
      "properties": {
        "osm_id": 1307541400.0,
        "name": null,
        "type": null
      },
      "geometry": {
        "type": "Polygon",
        "coordinates": [
          [
            [
              79.59221874234214,
              13.716895013364843
            ],
            [
              79.59263464234213,
              13.716946213364842
            ],
            [
              79.59265294234214,
              13.716805313364842
            ],
            [
              79.59223704234213,
              13.716754213364842
            ],
            [
              79.59221874234214,
              13.716895013364843
            ]
          ]
        ]
      }
    },
    {
      "id": "4",
      "type": "Feature",
      "properties": {
        "osm_id": 1307541404.0,
        "name": null,
        "type": null
      },
      "geometry": {
        "type": "Polygon",
        "coordinates": [
          [
            [
              79.5949585,
              13.7172137
            ],
            [
              79.5950881,
              13.71723
            ],
            [
              79.5951308,
              13.716909
            ],
            [
              79.5950011,
              13.7168927
            ],
            [
              79.5949585,
              13.7172137
            ]
          ]
        ]
      }
    },
    {
      "id": "5",
      "type": "Feature",
      "properties": {
        "osm_id": 1307541406.0,
        "name": "Director's Bungalow",
        "type": "house"
      },
      "geometry": {
        "type": "Polygon",
        "coordinates": [
          [
            [
              79.58898219742812,
              13.711290383914928
            ],
            [
              79.58903759742812,
              13.711297383914928
            ],
            [
              79.58904199742813,
              13.711264383914928
            ],
            [
              79.58911939742812,
              13.711274183914929
            ],
            [
              79.58912979742811,
              13.711196583914928
            ],
            [
              79.58906959742812,
              13.711188983914928
            ],
            [
              79.58909029742811,
              13.71103388391493
            ],
            [
              79.58901549742812,
              13.711024483914928
            ],
            [
              79.58900929742812,
              13.711071083914929
            ],
            [
              79.58886449742812,
              13.711052783914928
            ],
            [
              79.58885589742812,
              13.71111718391493
            ],
            [
              79.58900289742812,
              13.711135683914929
            ],
            [
              79.58898219742812,
              13.711290383914928
            ]
          ]
        ]
      }
    },
    {
      "id": "6",
      "type": "Feature",
      "properties": {
        "osm_id": 1307541414.0,
        "name": null,
        "type": null
      },
      "geometry": {
        "type": "Polygon",
        "coordinates": [
          [
            [
              79.5935396,
              13.7113135
            ],
            [
              79.5936587,
              13.7113422
            ],
            [
              79.5937272,
              13.711074
            ],
            [
              79.5936081,
              13.7110453
            ],
            [
              79.5935396,
              13.7113135
            ]
          ]
        ]
      }
    },
    {
      "id": "7",
      "type": "Feature",
      "properties": {
        "osm_id": 1307541417.0,
        "name": null,
        "type": "apartments"
      },
      "geometry": {
        "type": "Polygon",
        "coordinates": [
          [
            [
              79.59180976735723,
              13.710307457421557
            ],
            [
              79.59192356735723,
              13.710320657421557
            ],
            [
              79.59192686735723,
              13.710293557421556
            ],
            [
              79.59197886735723,
              13.710299557421557
            ],
            [
              79.59197626735723,
              13.710320857421557
            ],
            [
              79.59207776735722,
              13.710332757421556
            ],
            [
              79.59208016735722,
              13.710314157421557
            ],
            [
              79.59209656735723,
              13.710316057421556
            ],
            [
              79.59210526735723,
              13.710245757421557
            ],
            [
              79.59198226735722,
              13.710231257421556
            ],
            [
              79.59198806735724,
              13.710184857421556
            ],
            [
              79.59205696735722,
              13.710192957421556
            ],
            [
              79.59207916735723,
              13.710178657421556
            ],
            [
              79.59206766735723,
              13.710161857421557
            ],
            [
              79.59199496735722,
              13.710154857421557
            ],
            [
              79.59199846735723,
              13.710121457421556
            ],
            [
              79.59212626735723,
              13.710133857421557
            ],
            [
              79.59213426735722,
              13.710055657421556
            ],
            [
              79.59210926735723,
              13.710053157421557
            ],
            [
              79.59211136735723,
              13.710033757421556
            ],
            [
              79.59201266735722,
              13.710023957421557
            ],
            [
              79.59201066735723,
              13.710043257421557
            ],
            [
              79.59197016735723,
              13.710039157421557
            ],
            [
              79.59197306735723,
              13.710011957421557
            ],
            [
              79.59184306735723,
              13.709998757421557
            ],
            [
              79.59183976735723,
              13.710029357421556
            ],
            [
              79.59181586735723,
              13.710026957421556
            ],
            [
              79.59180896735722,
              13.710089657421557
            ],
            [
              79.59189416735722,
              13.710098457421557
            ],
            [
              79.59189096735723,
              13.710127857421556
            ],
            [
              79.59183736735723,
              13.710122357421557
            ],
            [
              79.59181106735723,
              13.710136257421556
            ],
            [
              79.59183616735723,
              13.710159557421557
            ],
            [
              79.59189496735723,
              13.710166357421556
            ],
            [
              79.59188976735723,
              13.710208957421557
            ],
            [
              79.59179946735723,
              13.710198457421557
            ],
            [
              79.59179036735723,
              13.710272557421556
            ],
            [
              79.59181366735723,
              13.710275357421557
            ],
            [
              79.59180976735723,
              13.710307457421557
            ]
          ]
        ]
      }
    },
    {
      "id": "8",
      "type": "Feature",
      "properties": {
        "osm_id": 1307541418.0,
        "name": null,
        "type": "apartments"
      },
      "geometry": {
        "type": "Polygon",
        "coordinates": [
          [
            [
              79.59185175251412,
              13.709752129686228
            ],
            [
              79.59196555251413,
              13.709765329686228
            ],
            [
              79.59196895251412,
              13.709738229686227
            ],
            [
              79.59202085251412,
              13.709744329686227
            ],
            [
              79.59201825251412,
              13.709765629686228
            ],
            [
              79.59211985251412,
              13.709777529686228
            ],
            [
              79.59212215251412,
              13.709758829686228
            ],
            [
              79.59213855251411,
              13.709760729686227
            ],
            [
              79.59214735251412,
              13.709690429686228
            ],
            [
              79.59202435251412,
              13.709675929686227
            ],
            [
              79.59203005251412,
              13.709629629686228
            ],
            [
              79.59209895251412,
              13.709637729686229
            ],
            [
              79.59212115251412,
              13.709623329686227
            ],
            [
              79.59210965251413,
              13.709606529686228
            ],
            [
              79.59203705251412,
              13.709599529686228
            ],
            [
              79.59204045251413,
              13.709566129686229
            ],
            [
              79.59216825251411,
              13.709578529686228
            ],
            [
              79.59217625251412,
              13.709500329686227
            ],
            [
              79.59215135251412,
              13.709497929686227
            ],
            [
              79.59215335251412,
              13.709478429686229
            ],
            [
              79.59205475251412,
              13.709468629686228
            ],
            [
              79.59205265251411,
              13.709487929686228
            ],
            [
              79.59201215251412,
              13.709483829686228
            ],
            [
              79.59201505251411,
              13.709456629686228
            ],
            [
              79.59188505251412,
              13.709443429686228
            ],
            [
              79.59188175251413,
              13.709474029686227
            ],
            [
              79.59185785251412,
              13.709471629686227
            ],
            [
              79.59185105251412,
              13.709534329686228
            ],
            [
              79.59193625251412,
              13.709543129686228
            ],
            [
              79.59193305251412,
              13.709572529686227
            ],
            [
              79.59187935251411,
              13.709567029686228
            ],
            [
              79.59185305251413,
              13.709580929686227
            ],
            [
              79.59187815251411,
              13.709604229686228
            ],
            [
              79.59193705251413,
              13.709611029686227
            ],
            [
              79.59193175251411,
              13.709653629686228
            ],
            [
              79.59184145251412,
              13.709643129686228
            ],
            [
              79.59183235251412,
              13.709717329686228
            ],
            [
              79.59185575251412,
              13.709720029686228
            ],
            [
              79.59185175251412,
              13.709752129686228
            ]
          ]
        ]
      }
    },
    {
      "id": "9",
      "type": "Feature",
      "properties": {
        "osm_id": 1307541419.0,
        "name": null,
        "type": "apartments"
      },
      "geometry": {
        "type": "Polygon",
        "coordinates": [
          [
            [
              79.5916952,
              13.7109004
            ],
            [
              79.591809,
              13.7109137
            ],
            [
              79.5918124,
              13.7108866
            ],
            [
              79.5918644,
              13.7108926
            ],
            [
              79.5918617,
              13.7109139
            ],
            [
              79.5919633,
              13.7109258
            ],
            [
              79.5919656,
              13.7109071
            ],
            [
              79.591982,
              13.7109091
            ],
            [
              79.5919908,
              13.7108388
            ],
            [
              79.5918678,
              13.7108243
            ],
            [
              79.5918736,
              13.7107779
            ],
            [
              79.5919425,
              13.710786
            ],
            [
              79.5919646,
              13.7107717
            ],
            [
              79.5919531,
              13.7107549
            ],
            [
              79.5918805,
              13.7107479
            ],
            [
              79.5918839,
              13.7107145
            ],
            [
              79.5920117,
              13.7107269
            ],
            [
              79.5920198,
              13.7106487
            ],
            [
              79.5919948,
              13.7106462
            ],
            [
              79.5919968,
              13.7106268
            ],
            [
              79.5918982,
              13.710617
            ],
            [
              79.5918962,
              13.7106363
            ],
            [
              79.5918556,
              13.7106322
            ],
            [
              79.5918585,
              13.710605
            ],
            [
              79.5917285,
              13.7105918
            ],
            [
              79.5917252,
              13.7106224
            ],
            [
              79.5917013,
              13.71062
            ],
            [
              79.5916945,
              13.7106827
            ],
            [
              79.5917797,
              13.7106915
            ],
            [
              79.5917765,
              13.7107209
            ],
            [
              79.5917229,
              13.7107154
            ],
            [
              79.5916965,
              13.7107293
            ],
            [
              79.5917217,
              13.7107526
            ],
            [
              79.5917805,
              13.7107594
            ],
            [
              79.5917753,
              13.7108019
            ],
            [
              79.591685,
              13.7107915
            ],
            [
              79.5916758,
              13.7108656
            ],
            [
              79.5916992,
              13.7108683
            ],
            [
              79.5916952,
              13.7109004
            ]
          ]
        ]
      }
    },
    {
      "id": "10",
      "type": "Feature",
      "properties": {
        "osm_id": 1307541420.0,
        "name": null,
        "type": "apartments"
      },
      "geometry": {
        "type": "Polygon",
        "coordinates": [
          [
            [
              79.59191862477878,
              13.70924096830248
            ],
            [
              79.5920324247788,
              13.709254168302481
            ],
            [
              79.5920357247788,
              13.70922706830248
            ],
            [
              79.59208772477879,
              13.70923316830248
            ],
            [
              79.5920850247788,
              13.70925446830248
            ],
            [
              79.59218662477879,
              13.70926636830248
            ],
            [
              79.5921889247788,
              13.70924766830248
            ],
            [
              79.5922054247788,
              13.70924956830248
            ],
            [
              79.59221412477879,
              13.70917926830248
            ],
            [
              79.59209112477879,
              13.70916476830248
            ],
            [
              79.59209692477879,
              13.70911846830248
            ],
            [
              79.59216582477879,
              13.70912656830248
            ],
            [
              79.59218802477879,
              13.70911216830248
            ],
            [
              79.5921765247788,
              13.70909536830248
            ],
            [
              79.59210382477879,
              13.70908836830248
            ],
            [
              79.5921073247788,
              13.70905496830248
            ],
            [
              79.59223502477879,
              13.70906736830248
            ],
            [
              79.59224312477879,
              13.70898916830248
            ],
            [
              79.5922181247788,
              13.70898676830248
            ],
            [
              79.59222012477879,
              13.70896726830248
            ],
            [
              79.59212152477879,
              13.70895746830248
            ],
            [
              79.5921195247788,
              13.708976768302481
            ],
            [
              79.59207892477879,
              13.70897276830248
            ],
            [
              79.5920819247788,
              13.70894546830248
            ],
            [
              79.59195182477879,
              13.70893226830248
            ],
            [
              79.59194852477879,
              13.70896286830248
            ],
            [
              79.59192462477878,
              13.70896046830248
            ],
            [
              79.59191782477879,
              13.70902316830248
            ],
            [
              79.59200302477879,
              13.70903196830248
            ],
            [
              79.5919998247788,
              13.70906136830248
            ],
            [
              79.5919462247788,
              13.70905586830248
            ],
            [
              79.5919199247788,
              13.70906976830248
            ],
            [
              79.5919450247788,
              13.70909306830248
            ],
            [
              79.59200382477879,
              13.70909986830248
            ],
            [
              79.5919986247788,
              13.70914246830248
            ],
            [
              79.59190832477879,
              13.709131968302481
            ],
            [
              79.59189922477879,
              13.70920616830248
            ],
            [
              79.5919225247788,
              13.70920886830248
            ],
            [
              79.59191862477878,
              13.70924096830248
            ]
          ]
        ]
      }
    },
    {
      "id": "11",
      "type": "Feature",
      "properties": {
        "osm_id": 1307541421.0,
        "name": "Faculty quaters",
        "type": "apartments"
      },
      "geometry": {
        "type": "Polygon",
        "coordinates": [
          [
            [
              79.59201197924381,
              13.708694621761847
            ],
            [
              79.5921257792438,
              13.708707921761848
            ],
            [
              79.5921291792438,
              13.708680821761847
            ],
            [
              79.5921810792438,
              13.708686821761848
            ],
            [
              79.5921784792438,
              13.708708121761846
            ],
            [
              79.5922800792438,
              13.708720021761847
            ],
            [
              79.5922823792438,
              13.708701321761847
            ],
            [
              79.5922987792438,
              13.708703321761847
            ],
            [
              79.5923075792438,
              13.708633021761848
            ],
            [
              79.5921844792438,
              13.708618521761847
            ],
            [
              79.5921902792438,
              13.708572121761847
            ],
            [
              79.5922591792438,
              13.708580221761848
            ],
            [
              79.5922813792438,
              13.708565921761847
            ],
            [
              79.5922698792438,
              13.708549121761846
            ],
            [
              79.5921972792438,
              13.708542121761848
            ],
            [
              79.5922006792438,
              13.708508721761847
            ],
            [
              79.5923284792438,
              13.708521121761848
            ],
            [
              79.5923364792438,
              13.708442921761847
            ],
            [
              79.5923115792438,
              13.708440421761848
            ],
            [
              79.59231357924381,
              13.708421021761847
            ],
            [
              79.5922149792438,
              13.708411221761848
            ],
            [
              79.5922128792438,
              13.708430521761848
            ],
            [
              79.5921723792438,
              13.708426421761848
            ],
            [
              79.5921752792438,
              13.708399121761847
            ],
            [
              79.5920452792438,
              13.708386021761847
            ],
            [
              79.5920419792438,
              13.708416621761847
            ],
            [
              79.5920180792438,
              13.708414121761848
            ],
            [
              79.5920112792438,
              13.708476921761847
            ],
            [
              79.5920964792438,
              13.708485721761848
            ],
            [
              79.5920932792438,
              13.708515121761847
            ],
            [
              79.5920395792438,
              13.708509621761847
            ],
            [
              79.5920132792438,
              13.708523521761848
            ],
            [
              79.5920383792438,
              13.708546821761848
            ],
            [
              79.5920972792438,
              13.708553621761848
            ],
            [
              79.5920919792438,
              13.708596121761847
            ],
            [
              79.5920016792438,
              13.708585721761848
            ],
            [
              79.5919925792438,
              13.708659821761847
            ],
            [
              79.5920159792438,
              13.708662521761847
            ],
            [
              79.59201197924381,
              13.708694621761847
            ]
          ]
        ]
      }
    },
    {
      "id": "12",
      "type": "Feature",
      "properties": {
        "osm_id": 1307541422.0,
        "name": null,
        "type": null
      },
      "geometry": {
        "type": "Polygon",
        "coordinates": [
          [
            [
              79.59170179408692,
              13.707727322767493
            ],
            [
              79.59187589408691,
              13.707848422767494
            ],
            [
              79.59193889408691,
              13.707762922767493
            ],
            [
              79.5917646940869,
              13.707641922767493
            ],
            [
              79.59170179408692,
              13.707727322767493
            ]
          ]
        ]
      }
    },
    {
      "id": "13",
      "type": "Feature",
      "properties": {
        "osm_id": 1307541423.0,
        "name": null,
        "type": null
      },
      "geometry": {
        "type": "Polygon",
        "coordinates": [
          [
            [
              79.5908764168544,
              13.707221453459367
            ],
            [
              79.5913393168544,
              13.707277053459368
            ],
            [
              79.5913654168544,
              13.707071953459367
            ],
            [
              79.5909025168544,
              13.707016453459367
            ],
            [
              79.5908764168544,
              13.707221453459367
            ]
          ]
        ]
      }
    },
    {
      "id": "14",
      "type": "Feature",
      "properties": {
        "osm_id": 1307541424.0,
        "name": null,
        "type": null
      },
      "geometry": {
        "type": "Polygon",
        "coordinates": [
          [
            [
              79.59150193270318,
              13.707322869308125
            ],
            [
              79.59196483270317,
              13.707378469308127
            ],
            [
              79.59199093270318,
              13.707173369308126
            ],
            [
              79.59152803270318,
              13.707117769308127
            ],
            [
              79.59150193270318,
              13.707322869308125
            ]
          ]
        ]
      }
    },
    {
      "id": "15",
      "type": "Feature",
      "properties": {
        "osm_id": 1307541425.0,
        "name": null,
        "type": null
      },
      "geometry": {
        "type": "Polygon",
        "coordinates": [
          [
            [
              79.59205644855192,
              13.707917007924381
            ],
            [
              79.59251934855192,
              13.70797260792438
            ],
            [
              79.59254544855192,
              13.70776750792438
            ],
            [
              79.59208254855191,
              13.70771200792438
            ],
            [
              79.59205644855192,
              13.707917007924381
            ]
          ]
        ]
      }
    },
    {
      "id": "16",
      "type": "Feature",
      "properties": {
        "osm_id": 1307541428.0,
        "name": null,
        "type": null
      },
      "geometry": {
        "type": "Polygon",
        "coordinates": [
          [
            [
              79.58803617131942,
              13.71221621188657
            ],
            [
              79.58814417131941,
              13.71222801188657
            ],
            [
              79.58815407131941,
              13.71214171188657
            ],
            [
              79.58854537131941,
              13.71218431188657
            ],
            [
              79.58856777131942,
              13.71199001188657
            ],
            [
              79.58819557131942,
              13.71194951188657
            ],
            [
              79.58821187131942,
              13.711808411886569
            ],
            [
              79.58787227131941,
              13.71177131188657
            ],
            [
              79.58784887131941,
              13.71197391188657
            ],
            [
              79.58806157131941,
              13.71199711188657
            ],
            [
              79.58803617131942,
              13.71221621188657
            ]
          ]
        ]
      }
    },
    {
      "id": "17",
      "type": "Feature",
      "properties": {
        "osm_id": 1307541429.0,
        "name": "Des Hostel",
        "type": "dormitory"
      },
      "geometry": {
        "type": "Polygon",
        "coordinates": [
          [
            [
              79.58623327131943,
              13.7180915
            ],
            [
              79.58711357131943,
              13.7182038
            ],
            [
              79.58712437131943,
              13.7181239
            ],
            [
              79.58678407131943,
              13.7180805
            ],
            [
              79.58678947131943,
              13.7180407
            ],
            [
              79.58680747131943,
              13.7180429
            ],
            [
              79.58682727131944,
              13.7178962
            ],
            [
              79.58711427131944,
              13.7179327
            ],
            [
              79.58713027131942,
              13.7178138
            ],
            [
              79.58679107131942,
              13.7177707
            ],
            [
              79.58682767131943,
              13.7174987
            ],
            [
              79.58632477131943,
              13.7174348
            ],
            [
              79.58631107131943,
              13.7175369
            ],
            [
              79.58669327131943,
              13.7175856
            ],
            [
              79.58666827131943,
              13.7177705
            ],
            [
              79.58628727131943,
              13.717722
            ],
            [
              79.58627367131943,
              13.7178229
            ],
            [
              79.58666797131943,
              13.7178731
            ],
            [
              79.58664317131942,
              13.7180571
            ],
            [
              79.58624477131943,
              13.7180064
            ],
            [
              79.58623327131943,
              13.7180915
            ]
          ]
        ]
      }
    },
    {
      "id": "18",
      "type": "Feature",
      "properties": {
        "osm_id": 1307541430.0,
        "name": "Malhar Hostel",
        "type": "dormitory"
      },
      "geometry": {
        "type": "Polygon",
        "coordinates": [
          [
            [
              79.58733261141393,
              13.71832497226467
            ],
            [
              79.58793911141392,
              13.71840177226467
            ],
            [
              79.58795031141392,
              13.71831817226467
            ],
            [
              79.58759751141392,
              13.71827347226467
            ],
            [
              79.58762941141393,
              13.71803617226467
            ],
            [
              79.58765871141392,
              13.71803987226467
            ],
            [
              79.58765501141391,
              13.71806797226467
            ],
            [
              79.58802491141392,
              13.71811457226467
            ],
            [
              79.58803611141393,
              13.71803087226467
            ],
            [
              79.58763981141392,
              13.71798097226467
            ],
            [
              79.58764641141393,
              13.71793177226467
            ],
            [
              79.58779911141391,
              13.717950972264669
            ],
            [
              79.58781321141392,
              13.717845472264669
            ],
            [
              79.58767501141392,
              13.71782807226467
            ],
            [
              79.58768031141392,
              13.717788172264669
            ],
            [
              79.58806771141393,
              13.717836972264669
            ],
            [
              79.58807971141393,
              13.71774677226467
            ],
            [
              79.58768931141392,
              13.717697572264669
            ],
            [
              79.58771201141393,
              13.717527772264669
            ],
            [
              79.58806941141393,
              13.717572772264669
            ],
            [
              79.58808471141393,
              13.71745827226467
            ],
            [
              79.58762801141393,
              13.71740067226467
            ],
            [
              79.58755011141392,
              13.71798347226467
            ],
            [
              79.58742371141392,
              13.71796747226467
            ],
            [
              79.58741451141393,
              13.71803587226467
            ],
            [
              79.58753041141392,
              13.71805057226467
            ],
            [
              79.58750571141393,
              13.718234772264669
            ],
            [
              79.58734741141392,
              13.71821467226467
            ],
            [
              79.58733261141393,
              13.71832497226467
            ]
          ]
        ]
      }
    },
    {
      "id": "19",
      "type": "Feature",
      "properties": {
        "osm_id": 1307541431.0,
        "name": null,
        "type": null
      },
      "geometry": {
        "type": "Polygon",
        "coordinates": [
          [
            [
              79.5860271,
              13.714947
            ],
            [
              79.5860415,
              13.7148534
            ],
            [
              79.5859935,
              13.7148465
            ],
            [
              79.5860075,
              13.7147551
            ],
            [
              79.5861955,
              13.7147824
            ],
            [
              79.5861672,
              13.7149673
            ],
            [
              79.5860271,
              13.714947
            ]
          ]
        ]
      }
    },
    {
      "id": "20",
      "type": "Feature",
      "properties": {
        "osm_id": 1307541432.0,
        "name": "North Mess",
        "type": null
      },
      "geometry": {
        "type": "Polygon",
        "coordinates": [
          [
            [
              79.58656046735723,
              13.717121096037811
            ],
            [
              79.58672166735722,
              13.71714109603781
            ],
            [
              79.58671646735723,
              13.71718119603781
            ],
            [
              79.58677446735723,
              13.717188296037811
            ],
            [
              79.58677046735723,
              13.71721849603781
            ],
            [
              79.58685636735723,
              13.717229196037811
            ],
            [
              79.58686486735724,
              13.717164296037812
            ],
            [
              79.58700436735722,
              13.717181596037811
            ],
            [
              79.58703356735722,
              13.71695819603781
            ],
            [
              79.58715406735723,
              13.71697309603781
            ],
            [
              79.58717426735723,
              13.716818896037811
            ],
            [
              79.58700856735723,
              13.716798396037811
            ],
            [
              79.58702596735723,
              13.71666619603781
            ],
            [
              79.58675586735723,
              13.71663279603781
            ],
            [
              79.58675146735723,
              13.71666679603781
            ],
            [
              79.58662226735723,
              13.716650796037811
            ],
            [
              79.58656046735723,
              13.717121096037811
            ]
          ]
        ]
      }
    },
    {
      "id": "21",
      "type": "Feature",
      "properties": {
        "osm_id": 1307541434.0,
        "name": null,
        "type": null
      },
      "geometry": {
        "type": "Polygon",
        "coordinates": [
          [
            [
              79.588150627499,
              13.716826812122884
            ],
            [
              79.58828862749901,
              13.716844012122884
            ],
            [
              79.58831662749901,
              13.716632912122884
            ],
            [
              79.58817872749901,
              13.716615612122883
            ],
            [
              79.588150627499,
              13.716826812122884
            ]
          ]
        ]
      }
    },
    {
      "id": "22",
      "type": "Feature",
      "properties": {
        "osm_id": 1307541440.0,
        "name": null,
        "type": "roof"
      },
      "geometry": {
        "type": "Polygon",
        "coordinates": [
          [
            [
              79.59637812726271,
              13.70783959603781
            ],
            [
              79.5965355272627,
              13.707807796037809
            ],
            [
              79.5965111272627,
              13.707693796037809
            ],
            [
              79.59635372726271,
              13.70772559603781
            ],
            [
              79.59637812726271,
              13.70783959603781
            ]
          ]
        ]
      }
    },
    {
      "id": "23",
      "type": "Feature",
      "properties": {
        "osm_id": 1307541450.0,
        "name": null,
        "type": null
      },
      "geometry": {
        "type": "Polygon",
        "coordinates": [
          [
            [
              79.5937806,
              13.7075645
            ],
            [
              79.5941434,
              13.7075657
            ],
            [
              79.5941436,
              13.7074991
            ],
            [
              79.5942394,
              13.7074994
            ],
            [
              79.5942397,
              13.7074228
            ],
            [
              79.5938191,
              13.7074212
            ],
            [
              79.5938188,
              13.7075049
            ],
            [
              79.5937809,
              13.7075048
            ],
            [
              79.5937806,
              13.7075645
            ]
          ]
        ]
      }
    },
    {
      "id": "24",
      "type": "Feature",
      "properties": {
        "osm_id": 1307541451.0,
        "name": "Abheri",
        "type": null
      },
      "geometry": {
        "type": "Polygon",
        "coordinates": [
          [
            [
              79.59368310893004,
              13.708466810880923
            ],
            [
              79.59402500893003,
              13.708464710880923
            ],
            [
              79.59403390893003,
              13.708395610880924
            ],
            [
              79.59407390893003,
              13.708397810880923
            ],
            [
              79.59407170893003,
              13.708302910880924
            ],
            [
              79.59372970893003,
              13.708279210880924
            ],
            [
              79.59368310893004,
              13.708466810880923
            ]
          ]
        ]
      }
    },
    {
      "id": "25",
      "type": "Feature",
      "properties": {
        "osm_id": 1307541452.0,
        "name": "Kedar",
        "type": null
      },
      "geometry": {
        "type": "Polygon",
        "coordinates": [
          [
            [
              79.59437072874098,
              13.708438883145593
            ],
            [
              79.59471932874098,
              13.708438883145593
            ],
            [
              79.59472382874098,
              13.708354783145593
            ],
            [
              79.59480592874098,
              13.708352583145594
            ],
            [
              79.59480822874097,
              13.708285683145593
            ],
            [
              79.59438182874098,
              13.708279283145593
            ],
            [
              79.59437072874098,
              13.708438883145593
            ]
          ]
        ]
      }
    },
    {
      "id": "26",
      "type": "Feature",
      "properties": {
        "osm_id": 1307541453.0,
        "name": "Basant",
        "type": null
      },
      "geometry": {
        "type": "Polygon",
        "coordinates": [
          [
            [
              79.59448731786006,
              13.708137552453719
            ],
            [
              79.59483591786005,
              13.708137552453719
            ],
            [
              79.59484031786005,
              13.708053452453719
            ],
            [
              79.59492251786006,
              13.70805125245372
            ],
            [
              79.59492471786005,
              13.707984452453719
            ],
            [
              79.59449841786005,
              13.707977952453719
            ],
            [
              79.59448731786006,
              13.708137552453719
            ]
          ]
        ]
      }
    },
    {
      "id": "27",
      "type": "Feature",
      "properties": {
        "osm_id": 1307541454.0,
        "name": "Bhairav",
        "type": null
      },
      "geometry": {
        "type": "Polygon",
        "coordinates": [
          [
            [
              79.59379378220034,
              13.708148314843113
            ],
            [
              79.59412308220034,
              13.708149614843112
            ],
            [
              79.59412338220034,
              13.708078614843114
            ],
            [
              79.59423478220033,
              13.708079014843113
            ],
            [
              79.59423508220034,
              13.708013114843112
            ],
            [
              79.59383668220033,
              13.708011514843113
            ],
            [
              79.59383638220034,
              13.708093214843114
            ],
            [
              79.59379408220033,
              13.708093114843113
            ],
            [
              79.59379378220034,
              13.708148314843113
            ]
          ]
        ]
      }
    },
    {
      "id": "28",
      "type": "Feature",
      "properties": {
        "osm_id": 1307541455.0,
        "name": "Sahana",
        "type": null
      },
      "geometry": {
        "type": "Polygon",
        "coordinates": [
          [
            [
              79.59463540201129,
              13.707787617799658
            ],
            [
              79.59505550201129,
              13.707781317799657
            ],
            [
              79.5950545020113,
              13.707715717799658
            ],
            [
              79.5951440020113,
              13.707714417799657
            ],
            [
              79.59514290201129,
              13.707644417799658
            ],
            [
              79.59467040201129,
              13.707651317799659
            ],
            [
              79.59467180201129,
              13.707736617799657
            ],
            [
              79.5946346020113,
              13.707737217799657
            ],
            [
              79.59463540201129,
              13.707787617799658
            ]
          ]
        ]
      }
    },
    {
      "id": "29",
      "type": "Feature",
      "properties": {
        "osm_id": 1307541456.0,
        "name": "Lab 2",
        "type": "university"
      },
      "geometry": {
        "type": "Polygon",
        "coordinates": [
          [
            [
              79.5938038,
              13.7071538
            ],
            [
              79.5942986,
              13.7071514
            ],
            [
              79.5942979,
              13.7070301
            ],
            [
              79.5944065,
              13.7070295
            ],
            [
              79.5944056,
              13.7068731
            ],
            [
              79.5939083,
              13.7068757
            ],
            [
              79.5939088,
              13.7069689
            ],
            [
              79.5938028,
              13.7069695
            ],
            [
              79.5938038,
              13.7071538
            ]
          ]
        ]
      }
    },
    {
      "id": "30",
      "type": "Feature",
      "properties": {
        "osm_id": 1307541457.0,
        "name": "Lab 1",
        "type": "university"
      },
      "geometry": {
        "type": "Polygon",
        "coordinates": [
          [
            [
              79.59386362081659,
              13.70667727226467
            ],
            [
              79.59435842081659,
              13.70667477226467
            ],
            [
              79.5943578208166,
              13.70655347226467
            ],
            [
              79.5944663208166,
              13.706552972264669
            ],
            [
              79.59446552081658,
              13.70639647226467
            ],
            [
              79.5939681208166,
              13.70639907226467
            ],
            [
              79.5939686208166,
              13.70649237226467
            ],
            [
              79.59386272081659,
              13.70649287226467
            ],
            [
              79.59386362081659,
              13.70667727226467
            ]
          ]
        ]
      }
    },
    {
      "id": "31",
      "type": "Feature",
      "properties": {
        "osm_id": 1307541458.0,
        "name": null,
        "type": null
      },
      "geometry": {
        "type": "Polygon",
        "coordinates": [
          [
            [
              79.59468229408691,
              13.706634641572796
            ],
            [
              79.59489619408691,
              13.706631041572797
            ],
            [
              79.59489439408691,
              13.706527941572796
            ],
            [
              79.59500609408691,
              13.706526041572795
            ],
            [
              79.59500349408691,
              13.706383141572795
            ],
            [
              79.59478039408691,
              13.706386941572795
            ],
            [
              79.5947821940869,
              13.706487841572796
            ],
            [
              79.5946796940869,
              13.706489641572796
            ],
            [
              79.59468229408691,
              13.706634641572796
            ]
          ]
        ]
      }
    },
    {
      "id": "32",
      "type": "Feature",
      "properties": {
        "osm_id": 1307541459.0,
        "name": null,
        "type": null
      },
      "geometry": {
        "type": "Polygon",
        "coordinates": [
          [
            [
              79.59469586339505,
              13.707421629686227
            ],
            [
              79.59513666339504,
              13.707422429686225
            ],
            [
              79.59513716339504,
              13.707151129686226
            ],
            [
              79.59469636339504,
              13.707150429686227
            ],
            [
              79.59469586339505,
              13.707421629686227
            ]
          ]
        ]
      }
    },
    {
      "id": "33",
      "type": "Feature",
      "properties": {
        "osm_id": null,
        "name": null,
        "type": null
      },
      "geometry": null
    },
    {
      "id": "34",
      "type": "Feature",
      "properties": {
        "osm_id": null,
        "name": null,
        "type": null
      },
      "geometry": null
    },
    {
      "id": "35",
      "type": "Feature",
      "properties": {
        "osm_id": null,
        "name": null,
        "type": null
      },
      "geometry": {
        "type": "Polygon",
        "coordinates": [
          [
            [
              79.59083345676805,
              13.716528309643985
            ],
            [
              79.59149764765186,
              13.716592766987139
            ],
            [
              79.59161254987227,
              13.715872526239723
            ],
            [
              79.59094835898846,
              13.715799661417028
            ],
            [
              79.59083345676805,
              13.716528309643985
            ]
          ]
        ]
      }
    },
    {
      "id": "36",
      "type": "Feature",
      "properties": {
        "osm_id": null,
        "name": null,
        "type": null
      },
      "geometry": {
        "type": "Polygon",
        "coordinates": [
          [
            [
              79.59068492462949,
              13.717511984750374
            ],
            [
              79.59125383074515,
              13.717565232120807
            ],
            [
              79.59134631302011,
              13.716853398852932
            ],
            [
              79.59081103682261,
              13.716788941509778
            ],
            [
              79.59068492462949,
              13.717511984750374
            ]
          ]
        ]
      }
    },
    {
      "id": "37",
      "type": "Feature",
      "properties": {
        "osm_id": null,
        "name": null,
        "type": null
      },
      "geometry": {
        "type": "Polygon",
        "coordinates": [
          [
            [
              79.5903678484559,
              13.714262999764316
            ],
            [
              79.59084653868486,
              13.714917356132345
            ],
            [
              79.59150309087963,
              13.71440353267557
            ],
            [
              79.59134499135448,
              13.714148816773921
            ],
            [
              79.59095633002178,
              13.714405728502308
            ],
            [
              79.59067306837254,
              13.71406976701134
            ],
            [
              79.5903678484559,
              13.714262999764316
            ]
          ]
        ]
      }
    },
    {
      "id": "38",
      "type": "Feature",
      "properties": {
        "osm_id": null,
        "name": null,
        "type": null
      },
      "geometry": {
        "type": "Polygon",
        "coordinates": [
          [
            [
              79.59096697549722,
              13.715559899311593
            ],
            [
              79.59160670297874,
              13.715627815585314
            ],
            [
              79.59184331451299,
              13.715255371503616
            ],
            [
              79.59147963382145,
              13.714764621654789
            ],
            [
              79.5912320680495,
              13.714893881659615
            ],
            [
              79.59119263279379,
              13.714933316915323
            ],
            [
              79.59113567075777,
              13.71498589725627
            ],
            [
              79.59105460939881,
              13.715047240987372
            ],
            [
              79.59102612838079,
              13.715084485395542
            ],
            [
              79.59099983821032,
              13.715156783364343
            ],
            [
              79.59099983821032,
              13.715268516588852
            ],
            [
              79.59096697549722,
              13.715559899311593
            ]
          ]
        ]
      }
    },
    {
      "id": "39",
      "type": "Feature",
      "properties": {
        "osm_id": null,
        "name": null,
        "type": null
      },
      "geometry": {
        "type": "Polygon",
        "coordinates": [
          [
            [
              79.59307914490509,
              13.706105605537658
            ],
            [
              79.59307158280927,
              13.706215796076773
            ],
            [
              79.5929775967612,
              13.706203912783339
            ],
            [
              79.59296679376716,
              13.706315183621857
            ],
            [
              79.59302945113255,
              13.70631950481947
            ],
            [
              79.59303053143195,
              13.7064350968556
            ],
            [
              79.59337838783975,
              13.706478308831723
            ],
            [
              79.59343888460631,
              13.706143416016767
            ],
            [
              79.59307914490509,
              13.706105605537658
            ]
          ]
        ]
      }
    }
  ]
}