{
  "type": "FeatureCollection",
  "features": [
    {
      "type": "Feature",
      "geometry": {
        "coordinates": [
          [
            [
              79.59158211607253,
              13.702383651774198
            ],
            [
              79.5915808755469,
              13.702384558825369
            ],
            [
              79.59157966170002,
              13.702385492553725
            ],
            [
              79.59157624692206,
              13.702388080315169
            ],
            [
              79.59155196998479,
              13.702409422677597
            ],
            [
              79.59150330939845,
              13.702468754445158
            ],
            [
              79.59066498140211,
              13.703544836358992
            ],
            [
              79.58976689479096,
              13.704936358389572
            ],
            [
              79.58837025059346,
              13.707162793638503
            ],
            [
              79.58792632945486,
              13.707811601456443
            ],
            [
              79.58742435709044,
              13.708873597411067
            ],
            [
              79.58537036812996,
              13.712247398064351
            ],
            [
              79.58511938194775,
              13.712476188189624
            ],
            [
              79.58459179874842,
              13.712981575332018
            ],
            [
              79.58425032094951,
              13.713348663965853
            ],
            [
              79.58422983228158,
              13.71337768957876
            ],
            [
              79.58420080666866,
              13.713405007802674
            ],
            [
              79.58415299977682,
              13.7134596442505
            ],
            [
              79.58405909338212,
              13.713536476755255
            ],
            [
              79.58395665004244,
              13.71360135753705
            ],
            [
              79.58354175451676,
              13.71382502549534
            ],
            [
              79.58305173387532,
              13.714161381127273
            ],
            [
              79.58249341767407,
              13.714550665818036
            ],
            [
              79.58224243149186,
              13.714709452994532
            ],
            [
              79.58214340293019,
              13.714769211609342
            ],
            [
              79.58205291131347,
              13.71481701850119
            ],
            [
              79.58198120097569,
              13.71485116628108
            ],
            [
              79.58190607585993,
              13.714887021449968
            ],
            [
              79.58177119212937,
              13.714938243119805
            ],
            [
              79.58135373552022,
              13.715123494825717
            ],
            [
              79.58114372667389,
              13.715215693831425
            ],
            [
              79.58101225772131,
              13.715256671167294
            ],
            [
              79.58097128038544,
              13.715275452446233
            ],
            [
              79.58094652324502,
              13.715293380030678
            ],
            [
              79.58092518088259,
              13.71531130761512
            ],
            [
              79.58090896068714,
              13.715321551949089
            ],
            [
              79.58089786265867,
              13.715330942588558
            ],
            [
              79.5808859109357,
              13.715345455395012
            ],
            [
              79.58085432423931,
              13.715377042091411
            ],
            [
              79.58076554001157,
              13.715459850457648
            ],
            [
              79.57959683224482,
              13.716733562647603
            ],
            [
              79.57911790963182,
              13.717259438457932
            ],
            [
              79.57895143920484,
              13.717429323662893
            ],
            [
              79.5788378978367,
              13.717565914782458
            ],
            [
              79.57792956689157,
              13.718414487112762
            ],
            [
              79.57752235461636,
              13.718789258997072
            ],
            [
              79.57717532780325,
              13.719107687044561
            ],
            [
              79.5770809945613,
              13.719194763883285
            ],
            [
              79.5770600790461,
              13.719222082107198
            ],
            [
              79.57704641993415,
              13.719238729149895
            ],
            [
              79.57704215146167,
              13.719249400331112
            ],
            [
              79.57703660244744,
              13.71925964466508
            ],
            [
              79.57702379702998,
              13.719289950819732
            ],
            [
              79.57698324654135,
              13.719377881352951
            ],
            [
              79.57694568398347,
              13.719467946122416
            ],
            [
              79.57690129186962,
              13.719572950545583
            ],
            [
              79.57688848645216,
              13.719607098325476
            ],
            [
              79.57688123004894,
              13.719628440687908
            ],
            [
              79.57684921650528,
              13.719698870483933
            ],
            [
              79.57684537488005,
              13.719706553734408
            ],
            [
              79.57683811847683,
              13.719717651762874
            ],
            [
              79.57681293448915,
              13.719754360626258
            ],
            [
              79.57676342020828,
              13.719829912589267
            ],
            [
              79.57648298156593,
              13.720154743345487
            ],
            [
              79.57626059414937,
              13.720413412778166
            ],
            [
              79.57596820378407,
              13.720741658312372
            ],
            [
              79.5758613319042,
              13.720870085978314
            ],
            [
              79.57586074498924,
              13.720875048077579
            ],
            [
              79.57586138526011,
              13.720879850109126
            ],
            [
              79.57586234566642,
              13.720883531666646
            ],
            [
              79.57586346614045,
              13.72088593268242
            ],
            [
              79.57586501346172,
              13.72088742664779
            ],
            [
              79.57586757454521,
              13.720888547121818
            ],
            [
              79.57587024234053,
              13.720889027324972
            ],
            [
              79.5758727500681,
              13.720889187392691
            ],
            [
              79.57588000647134,
              13.720889614239939
            ],
            [
              79.57603196409185,
              13.720885345767455
            ],
            [
              79.57634526997238,
              13.720873394044492
            ],
            [
              79.5764332005056,
              13.720871686655498
            ],
            [
              79.5764946665094,
              13.720869125572005
            ],
            [
              79.5765305216783,
              13.720870832961
            ],
            [
              79.57656296206919,
              13.720871686655498
            ],
            [
              79.57662101329501,
              13.720884492072956
            ],
            [
              79.57668077190982,
              13.720893882712428
            ],
            [
              79.57771544964058,
              13.721049255110941
            ],
            [
              79.57877403081726,
              13.72122767726088
            ],
            [
              79.57905575000137,
              13.721274630458232
            ],
            [
              79.57919490220443,
              13.72128828957019
            ],
            [
              79.57925209973575,
              13.721295972820664
            ],
            [
              79.579333200713,
              13.721307924543627
            ],
            [
              79.57936051893691,
              13.721313900405109
            ],
            [
              79.57944332730315,
              13.721343779712516
            ],
            [
              79.57957052778326,
              13.721399269854842
            ],
            [
              79.579655897233,
              13.721447076746692
            ],
            [
              79.579808708548,
              13.721522201862461
            ],
            [
              79.58057532620661,
              13.721897827441284
            ],
            [
              79.5811857177722,
              13.72215137470699
            ],
            [
              79.58143499656542,
              13.722265769769631
            ],
            [
              79.58149304779123,
              13.72229821016053
            ],
            [
              79.58152634187662,
              13.722313576661481
            ],
            [
              79.58154170837759,
              13.722316137744972
            ],
            [
              79.58158780788044,
              13.722316137744972
            ],
            [
              79.58212051324675,
              13.72234260227439
            ],
            [
              79.58267840260073,
              13.722375896359786
            ],
            [
              79.5829605486321,
              13.722389555471743
            ],
            [
              79.58303482005337,
              13.722389555471743
            ],
            [
              79.58307067522226,
              13.722385286999256
            ],
            [
              79.58308988334845,
              13.722381445374019
            ],
            [
              79.5831069572384,
              13.722376323207035
            ],
            [
              79.58311805526687,
              13.722371627887298
            ],
            [
              79.58313726339306,
              13.722365225178569
            ],
            [
              79.58318208235416,
              13.722346443899628
            ],
            [
              79.58530265948549,
              13.721564459740078
            ],
            [
              79.58629977465837,
              13.721205908051198
            ],
            [
              79.58790472031336,
              13.720703935686773
            ],
            [
              79.5891630660024,
              13.720419655419164
            ],
            [
              79.58974699303857,
              13.720277942132606
            ],
            [
              79.59051446439167,
              13.720096105204679
            ],
            [
              79.59111205053979,
              13.71998683230902
            ],
            [
              79.59129132638424,
              13.719950123445637
            ],
            [
              79.59133827958159,
              13.719935610639181
            ],
            [
              79.5914014529744,
              13.719908292415267
            ],
            [
              79.59142194164232,
              13.719901462859289
            ],
            [
              79.59143986922678,
              13.71989463330331
            ],
            [
              79.59147743178465,
              13.719874144635375
            ],
            [
              79.59149109089661,
              13.719863046606909
            ],
            [
              79.59150731109206,
              13.719848533800453
            ],
            [
              79.5915269460655,
              13.719832313605005
            ],
            [
              79.59153975148296,
              13.71981780079855
            ],
            [
              79.5915529837477,
              13.719793683929
            ],
            [
              79.59157368583926,
              13.719689319776705
            ],
            [
              79.59181688205916,
              13.718665419938985
            ],
            [
              79.59192274017683,
              13.718205278604925
            ],
            [
              79.5919961579036,
              13.717930815824037
            ],
            [
              79.59203158622523,
              13.717761357466317
            ],
            [
              79.59203542785046,
              13.717742149340127
            ],
            [
              79.59203969632296,
              13.717729770769916
            ],
            [
              79.59204481848994,
              13.717715257963462
            ],
            [
              79.59205975814365,
              13.717675881304773
            ],
            [
              79.59207000247761,
              13.717651977858846
            ],
            [
              79.5920734172556,
              13.717646001997366
            ],
            [
              79.59207896626984,
              13.71763831874689
            ],
            [
              79.59208579582581,
              13.71763148919091
            ],
            [
              79.59209305222905,
              13.717627647565674
            ],
            [
              79.59210372341026,
              13.717624659634932
            ],
            [
              79.59211567513321,
              13.717624232787685
            ],
            [
              79.59212933424517,
              13.717624232787685
            ],
            [
              79.5921391517319,
              13.717624659634932
            ],
            [
              79.59215110345485,
              13.717626367023927
            ],
            [
              79.59315376764197,
              13.717665636970803
            ],
            [
              79.59454699706158,
              13.71770490691768
            ],
            [
              79.59466053842972,
              13.717703199528685
            ],
            [
              79.59486627880365,
              13.71771515125165
            ],
            [
              79.59488548692984,
              13.717717498911517
            ],
            [
              79.59490341451428,
              13.717720700265883
            ],
            [
              79.59522440364526,
              13.717759970212759
            ],
            [
              79.59562862798974,
              13.71778515420043
            ],
            [
              79.59590757266679,
              13.717812259000722
            ],
            [
              79.5959225123205,
              13.717813752966093
            ],
            [
              79.5959287016056,
              13.717813326118844
            ],
            [
              79.59593553116157,
              13.71781268584797
            ],
            [
              79.59593851909231,
              13.717811405306225
            ],
            [
              79.59594342783568,
              13.717809271069981
            ],
            [
              79.59594919027353,
              13.717804148902998
            ],
            [
              79.59595196478065,
              13.717800947548632
            ],
            [
              79.59595452586414,
              13.717795398534399
            ],
            [
              79.5959560198295,
              13.717788142131171
            ],
            [
              79.59596370307996,
              13.717676734999273
            ],
            [
              79.5960349865705,
              13.716730841496236
            ],
            [
              79.59621767719295,
              13.715629575594692
            ],
            [
              79.59637646436946,
              13.71459319047494
            ],
            [
              79.59650622593304,
              13.713468021127465
            ],
            [
              79.59666672049856,
              13.712435050785702
            ],
            [
              79.5968152633411,
              13.711601844956311
            ],
            [
              79.59689892540183,
              13.71120743809855
            ],
            [
              79.59691429190279,
              13.711161338595693
            ],
            [
              79.5969416101267,
              13.711048650922047
            ],
            [
              79.59698429485158,
              13.710437405661962
            ],
            [
              79.59699112440755,
              13.710259837206518
            ],
            [
              79.5969757579066,
              13.709935433297535
            ],
            [
              79.5969757579066,
              13.70981250128992
            ],
            [
              79.59697405051762,
              13.709744205730134
            ],
            [
              79.59695185446068,
              13.70948126782496
            ],
            [
              79.59695526923866,
              13.709409557487184
            ],
            [
              79.59695697662767,
              13.709312236314489
            ],
            [
              79.59694161012672,
              13.709013443240426
            ],
            [
              79.59692624362576,
              13.708924659012704
            ],
            [
              79.59690404756883,
              13.70882050828403
            ],
            [
              79.59680843378513,
              13.708482445263089
            ],
            [
              79.5966872091665,
              13.707835344834114
            ],
            [
              79.59667525744355,
              13.70778583055327
            ],
            [
              79.59666330572058,
              13.707744853217397
            ],
            [
              79.59664964660863,
              13.707698753714542
            ],
            [
              79.59663940227466,
              13.707666313323644
            ],
            [
              79.59661891360672,
              13.707611676875816
            ],
            [
              79.59658647321582,
              13.707516063092115
            ],
            [
              79.59649768898811,
              13.7072975173008
            ],
            [
              79.59629109491975,
              13.706814326215314
            ],
            [
              79.59625865452885,
              13.706696516374684
            ],
            [
              79.59623987324991,
              13.70663675775987
            ],
            [
              79.5961784072461,
              13.706495044473314
            ],
            [
              79.59612889296525,
              13.706396015911626
            ],
            [
              79.5959905944567,
              13.706143322340417
            ],
            [
              79.59586083289311,
              13.70593843566106
            ],
            [
              79.59581814816823,
              13.705865017934292
            ],
            [
              79.59577204866538,
              13.705805259319478
            ],
            [
              79.59571229005057,
              13.705731841592709
            ],
            [
              79.59564228710178,
              13.705651594309959
            ],
            [
              79.59559960237692,
              13.705608909585093
            ],
            [
              79.59553130681714,
              13.705549150970281
            ],
            [
              79.59543740042244,
              13.705467196298537
            ],
            [
              79.59514372951536,
              13.705245235729233
            ],
            [
              79.5942046655683,
              13.704596427911264
            ],
            [
              79.59406295228173,
              13.704493984571585
            ],
            [
              79.59387343210334,
              13.70436422300799
            ],
            [
              79.59374196315075,
              13.704277146169265
            ],
            [
              79.59345341441065,
              13.704079089045885
            ],
            [
              79.59313584005764,
              13.703886154089489
            ],
            [
              79.59306925188686,
              13.703841761975628
            ],
            [
              79.59299583416009,
              13.703787125527798
            ],
            [
              79.59262533074825,
              13.70351223589966
            ],
            [
              79.59236239284307,
              13.703269786662421
            ],
            [
              79.59215409138574,
              13.703039289148144
            ],
            [
              79.59179895447484,
              13.7026380527344
            ],
            [
              79.59158211607253,
              13.702383651774198
            ]
          ]
        ],
        "type": "Polygon"
      },
      "properties": {
        "id": null
      }
    }
  ]
}