{
  "type": "FeatureCollection",
  "features": [
    {
      "type": "Feature",
      "geometry": {
        "coordinates": [
          [
            79.5925876,
            13.7057906
          ],
          [
            79.5926097,
            13.7061381
          ],
          [
            79.5926414,
            13.7066365
          ],
          [
            79.59275,
            13.7072443
          ],
          [
            79.5927592,
            13.7072958
          ],
          [
            79.5927914,
            13.7078534
          ],
          [
            79.5927592,
            13.7082182
          ],
          [
            79.5925071,
            13.7089948
          ],
          [
            79.5924481,
            13.7092866
          ],
          [
            79.5924008,
            13.7100443
          ],
          [
            79.5923717,
            13.7104212
          ],
          [
            79.5922481,
            13.7113523
          ],
          [
            79.592139,
            13.7119064
          ]
        ],
        "type": "LineString"
      },
      "properties": {
        "osm_id": 1237187516,
        "name": null,
        "ref": null,
        "type": "tertiary",
        "oneway": 0,
        "bridge": 0,
        "maxspeed": null
      }
    },
    {
      "type": "Feature",
      "geometry": {
        "coordinates": [
          [
            79.5922873,
            13.7120173
          ],
          [
            79.5922145,
            13.7119487
          ],
          [
            79.592139,
            13.7119064
          ],
          [
            79.59203,
            13.7118946
          ],
          [
            79.5919377,
            13.7119102
          ],
          [
            79.5918544,
            13.7119517
          ],
          [
            79.5917875,
            13.7120154
          ],
          [
            79.5917431,
            13.7120955
          ],
          [
            79.5917252,
            13.7121849
          ],
          [
            79.5917354,
            13.7122753
          ],
          [
            79.5917728,
            13.7123588
          ],
          [
            79.591834,
            13.7124276
          ],
          [
            79.5919135,
            13.7124757
          ],
          [
            79.592012,
            13.7124994
          ],
          [
            79.592113,
            13.7124911
          ],
          [
            79.592206,
            13.7124518
          ],
          [
            79.5922811,
            13.7123855
          ],
          [
            79.5922876,
            13.7123741
          ],
          [
            79.5923303,
            13.7122994
          ],
          [
            79.5923484,
            13.7122024
          ],
          [
            79.5923336,
            13.712105
          ],
          [
            79.5922873,
            13.7120173
          ]
        ],
        "type": "LineString"
      },
      "properties": {
        "osm_id": 1237187517,
        "name": "Director Circle",
        "ref": null,
        "type": "tertiary",
        "oneway": 0,
        "bridge": 0,
        "maxspeed": null
      }
    },
    {
      "type": "Feature",
      "geometry": {
        "coordinates": [
          [
            79.5880721,
            13.7192558
          ],
          [
            79.5880008,
            13.7196634
          ],
          [
            79.5878887,
            13.7199356
          ],
          [
            79.5877113,
            13.7202259
          ],
          [
            79.5874778,
            13.720362
          ],
          [
            79.5864971,
            13.7206705
          ],
          [
            79.5857032,
            13.7208792
          ],
          [
            79.5856004,
            13.7208248
          ],
          [
            79.5855911,
            13.7206615
          ],
          [
            79.5859325,
            13.7182993
          ],
          [
            79.5862729,
            13.7159432
          ],
          [
            79.5863663,
            13.7151901
          ],
          [
            79.5865811,
            13.7146185
          ],
          [
            79.5869851,
            13.7138966
          ],
          [
            79.5871042,
            13.7136839
          ],
          [
            79.5875432,
            13.7132574
          ],
          [
            79.5878701,
            13.7129761
          ],
          [
            79.588692,
            13.7123682
          ],
          [
            79.5890742,
            13.7120189
          ],
          [
            79.5892932,
            13.7118187
          ],
          [
            79.5897616,
            13.711232
          ],
          [
            79.590082,
            13.7106812
          ],
          [
            79.5903516,
            13.7101402
          ],
          [
            79.5905118,
            13.7096015
          ],
          [
            79.5906227,
            13.7090028
          ],
          [
            79.5906658,
            13.7082126
          ],
          [
            79.5906547,
            13.7076521
          ],
          [
            79.5906618,
            13.7075834
          ],
          [
            79.5907963,
            13.7075558
          ],
          [
            79.5909125,
            13.7075668
          ],
          [
            79.5910865,
            13.7075834
          ],
          [
            79.5913625,
            13.7077484
          ],
          [
            79.5918085,
            13.7080647
          ],
          [
            79.5919293,
            13.7081323
          ],
          [
            79.5919545,
            13.7081464
          ],
          [
            79.592042,
            13.7081954
          ],
          [
            79.5921891,
            13.7082337
          ],
          [
            79.5923181,
            13.7082366
          ],
          [
            79.5923865,
            13.7082338
          ],
          [
            79.5927592,
            13.7082182
          ]
        ],
        "type": "LineString"
      },
      "properties": {
        "osm_id": 1237187518,
        "name": null,
        "ref": null,
        "type": "unclassified",
        "oneway": 0,
        "bridge": 0,
        "maxspeed": null
      }
    },
    {
      "type": "Feature",
      "geometry": {
        "coordinates": [
          [
            79.5890742,
            13.7120189
          ],
          [
            79.5892089,
            13.7121262
          ],
          [
            79.5893876,
            13.712216
          ],
          [
            79.589554,
            13.7122698
          ],
          [
            79.5897265,
            13.7122579
          ],
          [
            79.5899299,
            13.712216
          ],
          [
            79.5901147,
            13.7120843
          ],
          [
            79.5903489,
            13.7119825
          ],
          [
            79.5905153,
            13.7119107
          ],
          [
            79.5907186,
            13.7118687
          ],
          [
            79.5909158,
            13.7118448
          ],
          [
            79.5912301,
            13.7118628
          ],
          [
            79.5915628,
            13.7119286
          ],
          [
            79.5917875,
            13.7120154
          ]
        ],
        "type": "LineString"
      },
      "properties": {
        "osm_id": 1237187519,
        "name": null,
        "ref": null,
        "type": "unclassified",
        "oneway": 0,
        "bridge": 0,
        "maxspeed": null
      }
    },
    {
      "type": "Feature",
      "geometry": {
        "coordinates": [
          [
            79.5922876,
            13.7123741
          ],
          [
            79.5924139,
            13.7123927
          ],
          [
            79.5925216,
            13.7124045
          ],
          [
            79.592666,
            13.7124025
          ],
          [
            79.5927844,
            13.7123919
          ],
          [
            79.5929721,
            13.7123372
          ],
          [
            79.5931143,
            13.7123137
          ],
          [
            79.5932967,
            13.7123163
          ],
          [
            79.5935085,
            13.7123267
          ],
          [
            79.593648,
            13.7123528
          ],
          [
            79.5940021,
            13.7124727
          ],
          [
            79.5946961,
            13.7127817
          ],
          [
            79.5952837,
            13.7131186
          ],
          [
            79.5954854,
            13.7132768
          ],
          [
            79.5955845,
            13.7134212
          ],
          [
            79.5956807,
            13.7136
          ],
          [
            79.5956703,
            13.7138032
          ],
          [
            79.5955916,
            13.7139954
          ],
          [
            79.5955042,
            13.7140981
          ],
          [
            79.595402,
            13.7141792
          ],
          [
            79.5953826,
            13.7143097
          ]
        ],
        "type": "LineString"
      },
      "properties": {
        "osm_id": 1237187520,
        "name": null,
        "ref": null,
        "type": "tertiary",
        "oneway": 0,
        "bridge": 0,
        "maxspeed": null
      }
    },
    {
      "type": "Feature",
      "geometry": {
        "coordinates": [
          [
            79.5954054,
            13.7144916
          ],
          [
            79.5953826,
            13.7143097
          ]
        ],
        "type": "LineString"
      },
      "properties": {
        "osm_id": 1237187521,
        "name": null,
        "ref": null,
        "type": "tertiary",
        "oneway": 1,
        "bridge": 0,
        "maxspeed": null
      }
    },
    {
      "type": "Feature",
      "geometry": {
        "coordinates": [
          [
            79.5953878,
            13.7146581
          ],
          [
            79.5954144,
            13.7146311
          ],
          [
            79.5954306,
            13.7145971
          ],
          [
            79.5954345,
            13.7145599
          ],
          [
            79.5954258,
            13.7145234
          ],
          [
            79.5954054,
            13.7144916
          ],
          [
            79.5953754,
            13.714468
          ],
          [
            79.5953391,
            13.7144551
          ],
          [
            79.5953005,
            13.7144543
          ],
          [
            79.5952637,
            13.7144659
          ],
          [
            79.5952328,
            13.7144884
          ],
          [
            79.5952111,
            13.7145194
          ],
          [
            79.5952009,
            13.7145556
          ],
          [
            79.5952034,
            13.7145931
          ],
          [
            79.5952184,
            13.7146277
          ],
          [
            79.595244,
            13.7146557
          ],
          [
            79.595267,
            13.714674
          ],
          [
            79.5953155,
            13.7146808
          ],
          [
            79.5953536,
            13.7146753
          ],
          [
            79.5953878,
            13.7146581
          ]
        ],
        "type": "LineString"
      },
      "properties": {
        "osm_id": 1237187522,
        "name": null,
        "ref": null,
        "type": "tertiary",
        "oneway": 0,
        "bridge": 0,
        "maxspeed": null
      }
    },
    {
      "type": "Feature",
      "geometry": {
        "coordinates": [
          [
            79.5953826,
            13.7143097
          ],
          [
            79.5953005,
            13.7144543
          ]
        ],
        "type": "LineString"
      },
      "properties": {
        "osm_id": 1237187523,
        "name": null,
        "ref": null,
        "type": "tertiary",
        "oneway": 1,
        "bridge": 0,
        "maxspeed": null
      }
    },
    {
      "type": "Feature",
      "geometry": {
        "coordinates": [
          [
            79.5943786,
            13.7145091
          ],
          [
            79.5944026,
            13.7144801
          ],
          [
            79.5944156,
            13.714445
          ],
          [
            79.5944162,
            13.7144078
          ],
          [
            79.5944044,
            13.7143725
          ],
          [
            79.5943814,
            13.7143428
          ],
          [
            79.5943497,
            13.714322
          ],
          [
            79.5943128,
            13.7143123
          ],
          [
            79.5942746,
            13.7143147
          ],
          [
            79.5942393,
            13.7143291
          ],
          [
            79.5942107,
            13.7143538
          ],
          [
            79.5941919,
            13.7143861
          ],
          [
            79.594185,
            13.7144227
          ],
          [
            79.5941906,
            13.7144595
          ],
          [
            79.5942082,
            13.7144925
          ],
          [
            79.594236,
            13.7145182
          ],
          [
            79.5942779,
            13.7145363
          ],
          [
            79.5943089,
            13.7145375
          ],
          [
            79.5943462,
            13.7145289
          ],
          [
            79.5943786,
            13.7145091
          ]
        ],
        "type": "LineString"
      },
      "properties": {
        "osm_id": 1237187524,
        "name": null,
        "ref": null,
        "type": "unclassified",
        "oneway": 0,
        "bridge": 0,
        "maxspeed": null
      }
    },
    {
      "type": "Feature",
      "geometry": {
        "coordinates": [
          [
            79.5944026,
            13.7144801
          ],
          [
            79.5952034,
            13.7145931
          ]
        ],
        "type": "LineString"
      },
      "properties": {
        "osm_id": 1237187525,
        "name": null,
        "ref": null,
        "type": "tertiary",
        "oneway": 1,
        "bridge": 0,
        "maxspeed": null
      }
    },
    {
      "type": "Feature",
      "geometry": {
        "coordinates": [
          [
            79.5952328,
            13.7144884
          ],
          [
            79.5944044,
            13.7143725
          ]
        ],
        "type": "LineString"
      },
      "properties": {
        "osm_id": 1237187526,
        "name": null,
        "ref": null,
        "type": "tertiary",
        "oneway": 1,
        "bridge": 0,
        "maxspeed": null
      }
    },
    {
      "type": "Feature",
      "geometry": {
        "coordinates": [
          [
            79.595267,
            13.714674
          ],
          [
            79.595287,
            13.7147392
          ],
          [
            79.5953248,
            13.7148388
          ]
        ],
        "type": "LineString"
      },
      "properties": {
        "osm_id": 1237187527,
        "name": null,
        "ref": null,
        "type": "tertiary",
        "oneway": 1,
        "bridge": 0,
        "maxspeed": null
      }
    },
    {
      "type": "Feature",
      "geometry": {
        "coordinates": [
          [
            79.5953248,
            13.7148388
          ],
          [
            79.5953759,
            13.7149238
          ],
          [
            79.5954328,
            13.7149929
          ],
          [
            79.5954775,
            13.7150679
          ],
          [
            79.5955222,
            13.7151844
          ],
          [
            79.5955425,
            13.7153819
          ],
          [
            79.5954703,
            13.7161168
          ]
        ],
        "type": "LineString"
      },
      "properties": {
        "osm_id": 1237187528,
        "name": null,
        "ref": null,
        "type": "tertiary",
        "oneway": 0,
        "bridge": 0,
        "maxspeed": null
      }
    },
    {
      "type": "Feature",
      "geometry": {
        "coordinates": [
          [
            79.5955615,
            13.7162985
          ],
          [
            79.5955762,
            13.7162615
          ],
          [
            79.5955778,
            13.7162219
          ],
          [
            79.5955662,
            13.7161838
          ],
          [
            79.5955425,
            13.7161515
          ],
          [
            79.5955093,
            13.7161284
          ],
          [
            79.5954703,
            13.7161168
          ],
          [
            79.5954335,
            13.7161175
          ],
          [
            79.5953985,
            13.7161285
          ],
          [
            79.5953684,
            13.716149
          ],
          [
            79.5953457,
            13.7161771
          ],
          [
            79.5953325,
            13.7162104
          ],
          [
            79.5953298,
            13.716246
          ],
          [
            79.5953379,
            13.7162809
          ],
          [
            79.5953562,
            13.7163119
          ],
          [
            79.595383,
            13.7163364
          ],
          [
            79.5954199,
            13.7163534
          ],
          [
            79.5954604,
            13.7163579
          ],
          [
            79.5955003,
            13.7163494
          ],
          [
            79.5955352,
            13.7163289
          ],
          [
            79.5955615,
            13.7162985
          ]
        ],
        "type": "LineString"
      },
      "properties": {
        "osm_id": 1237187529,
        "name": null,
        "ref": null,
        "type": "tertiary",
        "oneway": 0,
        "bridge": 0,
        "maxspeed": null
      }
    },
    {
      "type": "Feature",
      "geometry": {
        "coordinates": [
          [
            79.5954604,
            13.7163579
          ],
          [
            79.5953131,
            13.7172625
          ],
          [
            79.5952765,
            13.7173692
          ],
          [
            79.5952277,
            13.717464
          ],
          [
            79.5951261,
            13.7174995
          ],
          [
            79.5949228,
            13.7174995
          ],
          [
            79.5947404,
            13.7174739
          ],
          [
            79.5937154,
            13.7173297
          ],
          [
            79.5931543,
            13.7172112
          ],
          [
            79.593008,
            13.7171835
          ],
          [
            79.5928047,
            13.7171519
          ],
          [
            79.5925057,
            13.717139
          ],
          [
            79.5916132,
            13.7170304
          ],
          [
            79.591272,
            13.7194336
          ],
          [
            79.5912535,
            13.7195294
          ],
          [
            79.5912165,
            13.7196013
          ],
          [
            79.5911241,
            13.7196491
          ],
          [
            79.5908345,
            13.7196252
          ],
          [
            79.5880721,
            13.7192558
          ]
        ],
        "type": "LineString"
      },
      "properties": {
        "osm_id": 1237187530,
        "name": null,
        "ref": null,
        "type": "tertiary",
        "oneway": 0,
        "bridge": 0,
        "maxspeed": null
      }
    },
    {
      "type": "Feature",
      "geometry": {
        "coordinates": [
          [
            79.5947404,
            13.7174739
          ],
          [
            79.5947745,
            13.717558
          ],
          [
            79.5948395,
            13.7176173
          ],
          [
            79.59596125708191,
            13.71771220197105
          ]
        ],
        "type": "LineString"
      },
      "properties": {
        "osm_id": 1237187531,
        "name": null,
        "ref": null,
        "type": "unclassified",
        "oneway": 0,
        "bridge": 0,
        "maxspeed": null
      }
    },
    {
      "type": "Feature",
      "geometry": {
        "coordinates": [
          [
            79.5916132,
            13.7170304
          ],
          [
            79.591658,
            13.7168115
          ],
          [
            79.5917719,
            13.7158616
          ],
          [
            79.5917778,
            13.7158123
          ],
          [
            79.5918105,
            13.7155582
          ],
          [
            79.5918432,
            13.7153268
          ],
          [
            79.5918478,
            13.7152588
          ],
          [
            79.5918011,
            13.7151862
          ],
          [
            79.5914696,
            13.714728
          ],
          [
            79.5914696,
            13.7146508
          ],
          [
            79.5915303,
            13.7145556
          ],
          [
            79.5919981,
            13.714207
          ],
          [
            79.5924923,
            13.7138387
          ],
          [
            79.5933282,
            13.7132399
          ],
          [
            79.5933609,
            13.71319
          ],
          [
            79.5933497,
            13.7129714
          ],
          [
            79.5933096,
            13.7126682
          ],
          [
            79.5931788,
            13.7124278
          ],
          [
            79.5931143,
            13.7123137
          ]
        ],
        "type": "LineString"
      },
      "properties": {
        "osm_id": 1237187532,
        "name": null,
        "ref": null,
        "type": "unclassified",
        "oneway": 0,
        "bridge": 0,
        "maxspeed": null
      }
    },
    {
      "type": "Feature",
      "geometry": {
        "coordinates": [
          [
            79.5933609,
            13.71319
          ],
          [
            79.5934175,
            13.7132832
          ],
          [
            79.5934825,
            13.7133819
          ],
          [
            79.5935638,
            13.7134609
          ],
          [
            79.5936695,
            13.7135162
          ],
          [
            79.5938525,
            13.7135755
          ],
          [
            79.5939907,
            13.713611
          ],
          [
            79.5940923,
            13.7136505
          ],
          [
            79.594194,
            13.7137177
          ],
          [
            79.594259,
            13.7137967
          ],
          [
            79.5943241,
            13.7139112
          ],
          [
            79.5943485,
            13.7141442
          ],
          [
            79.5943128,
            13.7143123
          ]
        ],
        "type": "LineString"
      },
      "properties": {
        "osm_id": 1237187533,
        "name": null,
        "ref": null,
        "type": "unclassified",
        "oneway": 0,
        "bridge": 0,
        "maxspeed": null
      }
    },
    {
      "type": "Feature",
      "geometry": {
        "coordinates": [
          [
            79.591233,
            13.7132023
          ],
          [
            79.5919981,
            13.714207
          ]
        ],
        "type": "LineString"
      },
      "properties": {
        "osm_id": 1237187534,
        "name": null,
        "ref": null,
        "type": "unclassified",
        "oneway": 0,
        "bridge": 0,
        "maxspeed": null
      }
    },
    {
      "type": "Feature",
      "geometry": {
        "coordinates": [
          [
            79.5917719,
            13.7158616
          ],
          [
            79.5930804,
            13.7160169
          ],
          [
            79.5931739,
            13.7160169
          ],
          [
            79.5932958,
            13.7159853
          ],
          [
            79.5934097,
            13.7159261
          ],
          [
            79.5935235,
            13.7158155
          ],
          [
            79.5935804,
            13.7156852
          ],
          [
            79.5936211,
            13.7155114
          ],
          [
            79.5936536,
            13.7153534
          ],
          [
            79.5937024,
            13.7152744
          ],
          [
            79.5938,
            13.7151678
          ],
          [
            79.5938975,
            13.7151164
          ],
          [
            79.5940479,
            13.7150453
          ],
          [
            79.5941699,
            13.7149348
          ],
          [
            79.594239,
            13.7147886
          ],
          [
            79.5942779,
            13.7145363
          ]
        ],
        "type": "LineString"
      },
      "properties": {
        "osm_id": 1237187535,
        "name": null,
        "ref": null,
        "type": "unclassified",
        "oneway": 0,
        "bridge": 0,
        "maxspeed": null
      }
    },
    {
      "type": "Feature",
      "geometry": {
        "coordinates": [
          [
            79.5893133,
            13.7148718
          ],
          [
            79.5896274,
            13.7152344
          ],
          [
            79.5898713,
            13.7155267
          ],
          [
            79.5900177,
            13.7155978
          ],
          [
            79.5903673,
            13.7156767
          ],
          [
            79.5917719,
            13.7158616
          ]
        ],
        "type": "LineString"
      },
      "properties": {
        "osm_id": 1237187536,
        "name": null,
        "ref": null,
        "type": "unclassified",
        "oneway": 0,
        "bridge": 0,
        "maxspeed": null
      }
    },
    {
      "type": "Feature",
      "geometry": {
        "coordinates": [
          [
            79.5898713,
            13.7155267
          ],
          [
            79.5896751,
            13.71575
          ],
          [
            79.5896019,
            13.7159791
          ],
          [
            79.5894845,
            13.7162966
          ],
          [
            79.589358,
            13.716303
          ],
          [
            79.5884948,
            13.7163434
          ]
        ],
        "type": "LineString"
      },
      "properties": {
        "osm_id": 1237187537,
        "name": null,
        "ref": null,
        "type": "unclassified",
        "oneway": 0,
        "bridge": 0,
        "maxspeed": null
      }
    },
    {
      "type": "Feature",
      "geometry": {
        "coordinates": [
          [
            79.5894845,
            13.7162966
          ],
          [
            79.5894577,
            13.7163985
          ],
          [
            79.5894577,
            13.7164938
          ],
          [
            79.5894811,
            13.7165755
          ],
          [
            79.5895745,
            13.7166072
          ],
          [
            79.5899247,
            13.7166617
          ],
          [
            79.5907388,
            13.7167292
          ],
          [
            79.591658,
            13.7168115
          ]
        ],
        "type": "LineString"
      },
      "properties": {
        "osm_id": 1237187538,
        "name": null,
        "ref": null,
        "type": "unclassified",
        "oneway": 0,
        "bridge": 0,
        "maxspeed": null
      }
    },
    {
      "type": "Feature",
      "geometry": {
        "coordinates": [
          [
            79.5881008,
            13.7190804
          ],
          [
            79.5879672,
            13.7190556
          ],
          [
            79.587933,
            13.7189539
          ],
          [
            79.5879411,
            13.7188631
          ],
          [
            79.5879493,
            13.7186537
          ],
          [
            79.5879452,
            13.7185708
          ],
          [
            79.5877989,
            13.718551
          ],
          [
            79.5871584,
            13.7184646
          ],
          [
            79.5859325,
            13.7182993
          ]
        ],
        "type": "LineString"
      },
      "properties": {
        "osm_id": 1237187539,
        "name": null,
        "ref": null,
        "type": "residential",
        "oneway": 0,
        "bridge": 0,
        "maxspeed": null
      }
    },
    {
      "type": "Feature",
      "geometry": {
        "coordinates": [
          [
            79.5924008,
            13.7100443
          ],
          [
            79.5925994,
            13.7100706
          ],
          [
            79.5927281,
            13.7101019
          ],
          [
            79.5928569,
            13.710154
          ],
          [
            79.5929588,
            13.7102114
          ],
          [
            79.5930446,
            13.7102687
          ],
          [
            79.5931251,
            13.7102895
          ],
          [
            79.5931821,
            13.7102651
          ],
          [
            79.5932592,
            13.7102322
          ],
          [
            79.5932592,
            13.7101332
          ],
          [
            79.5932217,
            13.7099351
          ],
          [
            79.5932002,
            13.7097527
          ],
          [
            79.5932217,
            13.7095443
          ],
          [
            79.5932631,
            13.7094436
          ],
          [
            79.5933182,
            13.7093098
          ],
          [
            79.5934523,
            13.7091482
          ],
          [
            79.5936562,
            13.7089762
          ],
          [
            79.5940111,
            13.708841
          ],
          [
            79.5941164,
            13.7085907
          ],
          [
            79.5942185,
            13.708267
          ],
          [
            79.5943155,
            13.7079593
          ],
          [
            79.5944092,
            13.707662
          ],
          [
            79.5944321,
            13.7075533
          ],
          [
            79.5944529,
            13.7072692
          ],
          [
            79.5944575,
            13.7068113
          ],
          [
            79.5944655,
            13.7065303
          ],
          [
            79.5945441,
            13.70653
          ],
          [
            79.5945359,
            13.7062088
          ],
          [
            79.5945248,
            13.7056658
          ]
        ],
        "type": "LineString"
      },
      "properties": {
        "osm_id": 1237187540,
        "name": null,
        "ref": null,
        "type": "residential",
        "oneway": 0,
        "bridge": 0,
        "maxspeed": null
      }
    },
    {
      "type": "Feature",
      "geometry": {
        "coordinates": [
          [
            79.5937152,
            13.7073502
          ],
          [
            79.5937174,
            13.707265
          ],
          [
            79.5937292,
            13.7068176
          ],
          [
            79.5937341,
            13.7066273
          ],
          [
            79.5937481,
            13.7064141
          ],
          [
            79.5938229,
            13.7063234
          ],
          [
            79.5938976,
            13.7062871
          ],
          [
            79.5940642,
            13.7062328
          ],
          [
            79.5942292,
            13.7062145
          ],
          [
            79.5945359,
            13.7062088
          ],
          [
            79.5948095,
            13.706261
          ],
          [
            79.5949758,
            13.7062974
          ],
          [
            79.595126,
            13.7063965
          ],
          [
            79.5952333,
            13.7064851
          ],
          [
            79.5952977,
            13.7066206
          ],
          [
            79.5953621,
            13.7069437
          ],
          [
            79.5953996,
            13.7073867
          ],
          [
            79.5954035,
            13.7075706
          ],
          [
            79.595405,
            13.707642
          ],
          [
            79.5953782,
            13.7077671
          ],
          [
            79.595287,
            13.7079704
          ],
          [
            79.5951688,
            13.7081429
          ],
          [
            79.5951058,
            13.7082958
          ],
          [
            79.5950566,
            13.7083855
          ],
          [
            79.5949007,
            13.7085124
          ],
          [
            79.5946915,
            13.7085958
          ],
          [
            79.5941164,
            13.7085907
          ],
          [
            79.5936508,
            13.7085906
          ],
          [
            79.5935435,
            13.7085749
          ],
          [
            79.5935113,
            13.7084967
          ],
          [
            79.5935803,
            13.7082563
          ],
          [
            79.5936025,
            13.7081788
          ],
          [
            79.5936772,
            13.7079345
          ],
          [
            79.5937045,
            13.7078453
          ],
          [
            79.5937085,
            13.707657
          ],
          [
            79.5937152,
            13.7073502
          ],
          [
            79.5935221,
            13.7072981
          ],
          [
            79.5933933,
            13.7071521
          ],
          [
            79.5933563,
            13.707044
          ],
          [
            79.5933369,
            13.7069554
          ],
          [
            79.5933397,
            13.7067925
          ],
          [
            79.5933611,
            13.7066101
          ],
          [
            79.5928569,
            13.7065268
          ],
          [
            79.5929481,
            13.7070062
          ],
          [
            79.5929481,
            13.7071105
          ],
          [
            79.5929373,
            13.7071626
          ],
          [
            79.59275,
            13.7072443
          ]
        ],
        "type": "LineString"
      },
      "properties": {
        "osm_id": 1237187541,
        "name": null,
        "ref": null,
        "type": "residential",
        "oneway": 0,
        "bridge": 0,
        "maxspeed": null
      }
    },
    {
      "type": "Feature",
      "geometry": {
        "coordinates": [
          [
            79.5928569,
            13.7065268
          ],
          [
            79.5928891,
            13.7062088
          ],
          [
            79.5928833,
            13.7060782
          ],
          [
            79.5928904,
            13.7060026
          ],
          [
            79.5929116,
            13.7059613
          ],
          [
            79.5932231,
            13.7059923
          ],
          [
            79.5934283,
            13.7060163
          ],
          [
            79.5934566,
            13.706116
          ],
          [
            79.5933611,
            13.7066101
          ]
        ],
        "type": "LineString"
      },
      "properties": {
        "osm_id": 1237187542,
        "name": null,
        "ref": null,
        "type": "residential",
        "oneway": 0,
        "bridge": 0,
        "maxspeed": null
      }
    },
    {
      "type": "Feature",
      "geometry": {
        "coordinates": [
          [
            79.5937292,
            13.7068176
          ],
          [
            79.5944575,
            13.7068113
          ]
        ],
        "type": "LineString"
      },
      "properties": {
        "osm_id": 1237187543,
        "name": null,
        "ref": null,
        "type": "residential",
        "oneway": 0,
        "bridge": 0,
        "maxspeed": null
      }
    },
    {
      "type": "Feature",
      "geometry": {
        "coordinates": [
          [
            79.5937174,
            13.707265
          ],
          [
            79.5944529,
            13.7072692
          ]
        ],
        "type": "LineString"
      },
      "properties": {
        "osm_id": 1237187544,
        "name": null,
        "ref": null,
        "type": "residential",
        "oneway": 0,
        "bridge": 0,
        "maxspeed": null
      }
    },
    {
      "type": "Feature",
      "geometry": {
        "coordinates": [
          [
            79.5937085,
            13.707657
          ],
          [
            79.5944092,
            13.707662
          ]
        ],
        "type": "LineString"
      },
      "properties": {
        "osm_id": 1237187545,
        "name": null,
        "ref": null,
        "type": "residential",
        "oneway": 0,
        "bridge": 0,
        "maxspeed": null
      }
    },
    {
      "type": "Feature",
      "geometry": {
        "coordinates": [
          [
            79.5936772,
            13.7079345
          ],
          [
            79.5943155,
            13.7079593
          ],
          [
            79.595287,
            13.7079704
          ]
        ],
        "type": "LineString"
      },
      "properties": {
        "osm_id": 1237187546,
        "name": null,
        "ref": null,
        "type": "residential",
        "oneway": 0,
        "bridge": 0,
        "maxspeed": null
      }
    },
    {
      "type": "Feature",
      "geometry": {
        "coordinates": [
          [
            79.5935803,
            13.7082563
          ],
          [
            79.5942185,
            13.708267
          ],
          [
            79.5951058,
            13.7082958
          ]
        ],
        "type": "LineString"
      },
      "properties": {
        "osm_id": 1237187547,
        "name": null,
        "ref": null,
        "type": "residential",
        "oneway": 0,
        "bridge": 0,
        "maxspeed": null
      }
    },
    {
      "type": "Feature",
      "geometry": {
        "coordinates": [
          [
            79.5944321,
            13.7075533
          ],
          [
            79.5948954,
            13.7075616
          ],
          [
            79.5954035,
            13.7075706
          ]
        ],
        "type": "LineString"
      },
      "properties": {
        "osm_id": 1237187548,
        "name": null,
        "ref": null,
        "type": "residential",
        "oneway": 0,
        "bridge": 0,
        "maxspeed": null
      }
    },
    {
      "type": "Feature",
      "geometry": {
        "coordinates": [
          [
            79.5934122,
            13.7057375
          ],
          [
            79.5930183,
            13.7039681
          ],
          [
            79.5929812,
            13.7038014
          ]
        ],
        "type": "LineString"
      },
      "properties": {
        "osm_id": 1237187549,
        "name": null,
        "ref": null,
        "type": "residential",
        "oneway": 0,
        "bridge": 0,
        "maxspeed": null
      }
    },
    {
      "type": "Feature",
      "geometry": {
        "coordinates": [
          [
            79.5930183,
            13.7039681
          ],
          [
            79.5927323,
            13.7039833
          ],
          [
            79.5923245,
            13.704005
          ],
          [
            79.5918818,
            13.7040286
          ],
          [
            79.5914689,
            13.7040505
          ],
          [
            79.591103,
            13.70407
          ]
        ],
        "type": "LineString"
      },
      "properties": {
        "osm_id": 1237187550,
        "name": null,
        "ref": null,
        "type": "residential",
        "oneway": 0,
        "bridge": 0,
        "maxspeed": null
      }
    },
    {
      "type": "Feature",
      "geometry": {
        "coordinates": [
          [
            79.5914254,
            13.7033322
          ],
          [
            79.5914689,
            13.7040505
          ],
          [
            79.5915055,
            13.7047151
          ]
        ],
        "type": "LineString"
      },
      "properties": {
        "osm_id": 1237187551,
        "name": null,
        "ref": null,
        "type": "residential",
        "oneway": 0,
        "bridge": 0,
        "maxspeed": null
      }
    },
    {
      "type": "Feature",
      "geometry": {
        "coordinates": [
          [
            79.5922696,
            13.7033441
          ],
          [
            79.5923245,
            13.704005
          ],
          [
            79.5923557,
            13.7047061
          ]
        ],
        "type": "LineString"
      },
      "properties": {
        "osm_id": 1237187552,
        "name": null,
        "ref": null,
        "type": "residential",
        "oneway": 0,
        "bridge": 0,
        "maxspeed": null
      }
    },
    {
      "type": "Feature",
      "geometry": {
        "coordinates": [
          [
            79.5918382,
            13.7032543
          ],
          [
            79.5918818,
            13.7040286
          ],
          [
            79.5919305,
            13.7047001
          ]
        ],
        "type": "LineString"
      },
      "properties": {
        "osm_id": 1237187553,
        "name": null,
        "ref": null,
        "type": "residential",
        "oneway": 0,
        "bridge": 0,
        "maxspeed": null
      }
    },
    {
      "type": "Feature",
      "geometry": {
        "coordinates": [
          [
            79.5927133,
            13.7037093
          ],
          [
            79.5927323,
            13.7039833
          ],
          [
            79.5927809,
            13.7046403
          ]
        ],
        "type": "LineString"
      },
      "properties": {
        "osm_id": 1237187554,
        "name": null,
        "ref": null,
        "type": "residential",
        "oneway": 0,
        "bridge": 0,
        "maxspeed": null
      }
    },
    {
      "type": "Feature",
      "geometry": {
        "coordinates": [
          [
            79.5936521,
            13.705722
          ],
          [
            79.593604,
            13.7050055
          ],
          [
            79.5935553,
            13.7042808
          ]
        ],
        "type": "LineString"
      },
      "properties": {
        "osm_id": 1237187555,
        "name": null,
        "ref": null,
        "type": "residential",
        "oneway": 0,
        "bridge": 0,
        "maxspeed": null
      }
    },
    {
      "type": "Feature",
      "geometry": {
        "coordinates": [
          [
            79.593604,
            13.7050055
          ],
          [
            79.5939684,
            13.7049843
          ],
          [
            79.5940167,
            13.7049635
          ],
          [
            79.5939952,
            13.7045935
          ]
        ],
        "type": "LineString"
      },
      "properties": {
        "osm_id": 1237187556,
        "name": null,
        "ref": null,
        "type": "residential",
        "oneway": 0,
        "bridge": 0,
        "maxspeed": null
      }
    },
    {
      "type": "Feature",
      "geometry": {
        "coordinates": [
          [
            79.5923865,
            13.7082338
          ],
          [
            79.5923519,
            13.7084364
          ],
          [
            79.5922845,
            13.7088308
          ],
          [
            79.5922617,
            13.708964
          ],
          [
            79.5922492,
            13.7090374
          ],
          [
            79.5921828,
            13.7094959
          ],
          [
            79.592176,
            13.709543
          ],
          [
            79.5921564,
            13.709865
          ],
          [
            79.5921469,
            13.7100203
          ],
          [
            79.5921232,
            13.7104088
          ],
          [
            79.5921191,
            13.7104751
          ],
          [
            79.5921006,
            13.7106124
          ],
          [
            79.5920541,
            13.710957
          ],
          [
            79.5920077,
            13.7109992
          ],
          [
            79.5915734,
            13.7109539
          ],
          [
            79.591536,
            13.7109221
          ],
          [
            79.59155,
            13.7107633
          ],
          [
            79.5915839,
            13.7105315
          ],
          [
            79.5916114,
            13.7103434
          ],
          [
            79.5916639,
            13.7099845
          ],
          [
            79.5916887,
            13.7098149
          ],
          [
            79.5917387,
            13.7094732
          ],
          [
            79.5918224,
            13.7089008
          ],
          [
            79.5918419,
            13.7087674
          ],
          [
            79.5919003,
            13.7083685
          ],
          [
            79.5919143,
            13.7082725
          ],
          [
            79.5919545,
            13.7081464
          ]
        ],
        "type": "LineString"
      },
      "properties": {
        "osm_id": 1237187557,
        "name": null,
        "ref": null,
        "type": "residential",
        "oneway": 0,
        "bridge": 0,
        "maxspeed": null
      }
    },
    {
      "type": "Feature",
      "geometry": {
        "coordinates": [
          [
            79.5921006,
            13.7106124
          ],
          [
            79.5915839,
            13.7105315
          ]
        ],
        "type": "LineString"
      },
      "properties": {
        "osm_id": 1237187558,
        "name": null,
        "ref": null,
        "type": "residential",
        "oneway": 0,
        "bridge": 0,
        "maxspeed": null
      }
    },
    {
      "type": "Feature",
      "geometry": {
        "coordinates": [
          [
            79.5921232,
            13.7104088
          ],
          [
            79.5916114,
            13.7103434
          ]
        ],
        "type": "LineString"
      },
      "properties": {
        "osm_id": 1237187559,
        "name": null,
        "ref": null,
        "type": "residential",
        "oneway": 0,
        "bridge": 0,
        "maxspeed": null
      }
    },
    {
      "type": "Feature",
      "geometry": {
        "coordinates": [
          [
            79.5916639,
            13.7099845
          ],
          [
            79.5921469,
            13.7100203
          ]
        ],
        "type": "LineString"
      },
      "properties": {
        "osm_id": 1237187560,
        "name": null,
        "ref": null,
        "type": "residential",
        "oneway": 0,
        "bridge": 0,
        "maxspeed": null
      }
    },
    {
      "type": "Feature",
      "geometry": {
        "coordinates": [
          [
            79.5921564,
            13.709865
          ],
          [
            79.5916887,
            13.7098149
          ]
        ],
        "type": "LineString"
      },
      "properties": {
        "osm_id": 1237187561,
        "name": null,
        "ref": null,
        "type": "residential",
        "oneway": 0,
        "bridge": 0,
        "maxspeed": null
      }
    },
    {
      "type": "Feature",
      "geometry": {
        "coordinates": [
          [
            79.5921828,
            13.7094959
          ],
          [
            79.5917387,
            13.7094732
          ]
        ],
        "type": "LineString"
      },
      "properties": {
        "osm_id": 1237187562,
        "name": null,
        "ref": null,
        "type": "residential",
        "oneway": 0,
        "bridge": 0,
        "maxspeed": null
      }
    },
    {
      "type": "Feature",
      "geometry": {
        "coordinates": [
          [
            79.5922617,
            13.708964
          ],
          [
            79.5918224,
            13.7089008
          ]
        ],
        "type": "LineString"
      },
      "properties": {
        "osm_id": 1237187563,
        "name": null,
        "ref": null,
        "type": "residential",
        "oneway": 0,
        "bridge": 0,
        "maxspeed": null
      }
    },
    {
      "type": "Feature",
      "geometry": {
        "coordinates": [
          [
            79.5922845,
            13.7088308
          ],
          [
            79.5918419,
            13.7087674
          ]
        ],
        "type": "LineString"
      },
      "properties": {
        "osm_id": 1237187564,
        "name": null,
        "ref": null,
        "type": "residential",
        "oneway": 0,
        "bridge": 0,
        "maxspeed": null
      }
    },
    {
      "type": "Feature",
      "geometry": {
        "coordinates": [
          [
            79.5923519,
            13.7084364
          ],
          [
            79.5919003,
            13.7083685
          ]
        ],
        "type": "LineString"
      },
      "properties": {
        "osm_id": 1237187565,
        "name": null,
        "ref": null,
        "type": "residential",
        "oneway": 0,
        "bridge": 0,
        "maxspeed": null
      }
    },
    {
      "type": "Feature",
      "geometry": {
        "coordinates": [
          [
            79.5954144,
            13.7146311
          ],
          [
            79.5956882,
            13.7146639
          ],
          [
            79.59635343655626,
            13.71474349028794
          ]
        ],
        "type": "LineString"
      },
      "properties": {
        "osm_id": 1307541375,
        "name": null,
        "ref": null,
        "type": "tertiary",
        "oneway": 1,
        "bridge": 0,
        "maxspeed": null
      }
    },
    {
      "type": "Feature",
      "geometry": {
        "coordinates": [
          [
            79.5963708325809,
            13.714629948492673
          ],
          [
            79.5957078,
            13.7145552
          ],
          [
            79.5954258,
            13.7145234
          ]
        ],
        "type": "LineString"
      },
      "properties": {
        "osm_id": 1307541376,
        "name": null,
        "ref": null,
        "type": "tertiary",
        "oneway": 1,
        "bridge": 0,
        "maxspeed": null
      }
    },
    {
      "type": "Feature",
      "geometry": {
        "coordinates": [
          [
            79.59558638946038,
            13.705597348283119
          ],
          [
            79.5945248,
            13.7056658
          ],
          [
            79.5936521,
            13.705722
          ],
          [
            79.5934122,
            13.7057375
          ],
          [
            79.5928742,
            13.7057722
          ],
          [
            79.5925876,
            13.7057906
          ]
        ],
        "type": "LineString"
      },
      "properties": {
        "osm_id": 1307541377,
        "name": null,
        "ref": null,
        "type": "unclassified",
        "oneway": 0,
        "bridge": 0,
        "maxspeed": null
      }
    },
    {
      "type": "Feature",
      "geometry": {
        "coordinates": [
          [
            79.5913625,
            13.7077484
          ],
          [
            79.5914179,
            13.7073952
          ]
        ],
        "type": "LineString"
      },
      "properties": {
        "osm_id": 1307541378,
        "name": null,
        "ref": null,
        "type": "service",
        "oneway": 0,
        "bridge": 0,
        "maxspeed": null
      }
    },
    {
      "type": "Feature",
      "geometry": {
        "coordinates": [
          [
            79.5909125,
            13.7075668
          ],
          [
            79.5909462,
            13.7073252
          ]
        ],
        "type": "LineString"
      },
      "properties": {
        "osm_id": 1307541379,
        "name": null,
        "ref": null,
        "type": "service",
        "oneway": 0,
        "bridge": 0,
        "maxspeed": null
      }
    },
    {
      "type": "Feature",
      "geometry": {
        "coordinates": [
          [
            79.5909462,
            13.7073252
          ],
          [
            79.5912977,
            13.7073708
          ],
          [
            79.5913392,
            13.7070679
          ],
          [
            79.5908363,
            13.7070029
          ],
          [
            79.5907947,
            13.7073056
          ],
          [
            79.5909462,
            13.7073252
          ]
        ],
        "type": "LineString"
      },
      "properties": {
        "osm_id": 1307541380,
        "name": null,
        "ref": null,
        "type": "service",
        "oneway": 0,
        "bridge": 0,
        "maxspeed": null
      }
    },
    {
      "type": "Feature",
      "geometry": {
        "coordinates": [
          [
            79.5914179,
            13.7073952
          ],
          [
            79.5919153,
            13.7074532
          ],
          [
            79.591952,
            13.7071568
          ],
          [
            79.5914546,
            13.7070986
          ],
          [
            79.5914179,
            13.7073952
          ]
        ],
        "type": "LineString"
      },
      "properties": {
        "osm_id": 1307541381,
        "name": null,
        "ref": null,
        "type": "service",
        "oneway": 0,
        "bridge": 0,
        "maxspeed": null
      }
    },
    {
      "type": "Feature",
      "geometry": {
        "coordinates": [
          [
            79.5932631,
            13.7094436
          ],
          [
            79.5926957,
            13.7094467
          ]
        ],
        "type": "LineString"
      },
      "properties": {
        "osm_id": 1307541386,
        "name": null,
        "ref": null,
        "type": "service",
        "oneway": 0,
        "bridge": 0,
        "maxspeed": null
      }
    },
    {
      "type": "Feature",
      "geometry": {
        "coordinates": [
          [
            79.594185,
            13.7144227
          ],
          [
            79.5940683,
            13.7144089
          ]
        ],
        "type": "LineString"
      },
      "properties": {
        "osm_id": 1307541387,
        "name": null,
        "ref": null,
        "type": "service",
        "oneway": 0,
        "bridge": 0,
        "maxspeed": null
      }
    },
    {
      "type": "Feature",
      "geometry": {
        "coordinates": [
          [
            79.5938139,
            13.7142632
          ],
          [
            79.5938546,
            13.7142352
          ],
          [
            79.5939025,
            13.7142214
          ],
          [
            79.5939523,
            13.7142233
          ],
          [
            79.5939989,
            13.7142408
          ],
          [
            79.5940372,
            13.7142719
          ],
          [
            79.5940631,
            13.7143134
          ],
          [
            79.5940738,
            13.7143607
          ],
          [
            79.5940683,
            13.7144089
          ],
          [
            79.5940467,
            13.7144534
          ],
          [
            79.5940112,
            13.7144886
          ],
          [
            79.5939659,
            13.7145105
          ],
          [
            79.5939156,
            13.7145169
          ],
          [
            79.593866,
            13.7145069
          ],
          [
            79.5938225,
            13.7144817
          ],
          [
            79.5937899,
            13.714444
          ],
          [
            79.5937717,
            13.7143981
          ],
          [
            79.59377,
            13.7143489
          ],
          [
            79.5937846,
            13.7143025
          ],
          [
            79.5938139,
            13.7142632
          ]
        ],
        "type": "LineString"
      },
      "properties": {
        "osm_id": 1307541388,
        "name": null,
        "ref": null,
        "type": "service",
        "oneway": 0,
        "bridge": 0,
        "maxspeed": null
      }
    },
    {
      "type": "Feature",
      "geometry": {
        "coordinates": [
          [
            79.5890742,
            13.7120189
          ],
          [
            79.5889954,
            13.7120064
          ],
          [
            79.5889409,
            13.71198
          ],
          [
            79.588881,
            13.7119244
          ],
          [
            79.5888456,
            13.7118477
          ],
          [
            79.5888701,
            13.7117763
          ],
          [
            79.5889219,
            13.7117101
          ],
          [
            79.5890145,
            13.7116281
          ],
          [
            79.5890798,
            13.7115541
          ],
          [
            79.5891043,
            13.7114773
          ],
          [
            79.5891122,
            13.7114286
          ],
          [
            79.5891493,
            13.7111997
          ]
        ],
        "type": "LineString"
      },
      "properties": {
        "osm_id": 1307541405,
        "name": null,
        "ref": null,
        "type": "service",
        "oneway": 0,
        "bridge": 0,
        "maxspeed": null
      }
    },
    {
      "type": "Feature",
      "geometry": {
        "coordinates": [
          [
            79.5925876,
            13.7057906
          ],
          [
            79.5924528,
            13.7058001
          ],
          [
            79.5920478,
            13.7058285
          ],
          [
            79.5916254,
            13.7058582
          ],
          [
            79.5915898,
            13.7058607
          ]
        ],
        "type": "LineString"
      },
      "properties": {
        "osm_id": 1307541407,
        "name": null,
        "ref": null,
        "type": "unclassified",
        "oneway": 0,
        "bridge": 0,
        "maxspeed": null
      }
    },
    {
      "type": "Feature",
      "geometry": {
        "coordinates": [
          [
            79.5916254,
            13.7058582
          ],
          [
            79.591572,
            13.7051117
          ]
        ],
        "type": "LineString"
      },
      "properties": {
        "osm_id": 1307541408,
        "name": null,
        "ref": null,
        "type": "residential",
        "oneway": 0,
        "bridge": 0,
        "maxspeed": null
      }
    },
    {
      "type": "Feature",
      "geometry": {
        "coordinates": [
          [
            79.5920478,
            13.7058285
          ],
          [
            79.5919899,
            13.7050813
          ]
        ],
        "type": "LineString"
      },
      "properties": {
        "osm_id": 1307541409,
        "name": null,
        "ref": null,
        "type": "residential",
        "oneway": 0,
        "bridge": 0,
        "maxspeed": null
      }
    },
    {
      "type": "Feature",
      "geometry": {
        "coordinates": [
          [
            79.5924528,
            13.7058001
          ],
          [
            79.592401,
            13.7050639
          ]
        ],
        "type": "LineString"
      },
      "properties": {
        "osm_id": 1307541410,
        "name": null,
        "ref": null,
        "type": "residential",
        "oneway": 0,
        "bridge": 0,
        "maxspeed": null
      }
    },
    {
      "type": "Feature",
      "geometry": {
        "coordinates": [
          [
            79.5928742,
            13.7057722
          ],
          [
            79.5928256,
            13.7050748
          ]
        ],
        "type": "LineString"
      },
      "properties": {
        "osm_id": 1307541411,
        "name": null,
        "ref": null,
        "type": "residential",
        "oneway": 0,
        "bridge": 0,
        "maxspeed": null
      }
    },
    {
      "type": "Feature",
      "geometry": {
        "coordinates": [
          [
            79.5931821,
            13.7102651
          ],
          [
            79.5932285,
            13.7103774
          ],
          [
            79.5933771,
            13.7105371
          ],
          [
            79.59363,
            13.7106323
          ],
          [
            79.5938141,
            13.7104776
          ]
        ],
        "type": "LineString"
      },
      "properties": {
        "osm_id": 1307541416,
        "name": null,
        "ref": null,
        "type": "path",
        "oneway": 0,
        "bridge": 0,
        "maxspeed": null
      }
    },
    {
      "type": "Feature",
      "geometry": {
        "coordinates": [
          [
            79.5919293,
            13.7081323
          ],
          [
            79.5919525,
            13.7079707
          ],
          [
            79.5919996,
            13.7076426
          ],
          [
            79.5925141,
            13.707698
          ],
          [
            79.5924599,
            13.7080331
          ],
          [
            79.5919525,
            13.7079707
          ]
        ],
        "type": "LineString"
      },
      "properties": {
        "osm_id": 1307541426,
        "name": null,
        "ref": null,
        "type": "service",
        "oneway": 0,
        "bridge": 0,
        "maxspeed": null
      }
    },
    {
      "type": "Feature",
      "geometry": {
        "coordinates": [
          [
            79.5906618,
            13.7075834
          ],
          [
            79.5905155,
            13.7062387
          ]
        ],
        "type": "LineString"
      },
      "properties": {
        "osm_id": 1307541427,
        "name": null,
        "ref": null,
        "type": "construction",
        "oneway": 0,
        "bridge": 0,
        "maxspeed": null
      }
    },
    {
      "type": "Feature",
      "geometry": {
        "coordinates": [
          [
            79.5871584,
            13.7184646
          ],
          [
            79.5874218,
            13.7172843
          ]
        ],
        "type": "LineString"
      },
      "properties": {
        "osm_id": 1307541433,
        "name": null,
        "ref": null,
        "type": "footway",
        "oneway": 0,
        "bridge": 0,
        "maxspeed": null
      }
    },
    {
      "type": "Feature",
      "geometry": {
        "coordinates": [
          [
            79.59658660728924,
            13.707516458255869
          ],
          [
            79.5965341,
            13.7075946
          ],
          [
            79.596413,
            13.7076338
          ],
          [
            79.5964601,
            13.7079149
          ],
          [
            79.5966036,
            13.7078888
          ],
          [
            79.5967056804832,
            13.707933945242933
          ]
        ],
        "type": "LineString"
      },
      "properties": {
        "osm_id": 1307541441,
        "name": null,
        "ref": null,
        "type": "service",
        "oneway": 1,
        "bridge": 0,
        "maxspeed": null
      }
    },
    {
      "type": "Feature",
      "geometry": {
        "coordinates": [
          [
            79.5869851,
            13.7138966
          ],
          [
            79.5869822,
            13.7141976
          ],
          [
            79.5870362,
            13.7144687
          ],
          [
            79.5870881,
            13.7145937
          ],
          [
            79.5871578,
            13.7147616
          ],
          [
            79.5873018,
            13.7149759
          ],
          [
            79.5876483,
            13.7152251
          ],
          [
            79.5879454,
            13.7153475
          ],
          [
            79.588355,
            13.7154044
          ],
          [
            79.5887733,
            13.7154313
          ]
        ],
        "type": "LineString"
      },
      "properties": {
        "osm_id": 1307541446,
        "name": null,
        "ref": null,
        "type": "construction",
        "oneway": 0,
        "bridge": 0,
        "maxspeed": null
      }
    },
    {
      "type": "Feature",
      "geometry": {
        "coordinates": [
          [
            79.5865811,
            13.7146185
          ],
          [
            79.5868472,
            13.7146042
          ],
          [
            79.5870881,
            13.7145937
          ]
        ],
        "type": "LineString"
      },
      "properties": {
        "osm_id": 1307541447,
        "name": null,
        "ref": null,
        "type": "construction",
        "oneway": 0,
        "bridge": 0,
        "maxspeed": null
      }
    },
    {
      "type": "Feature",
      "geometry": {
        "coordinates": [
          [
            79.5905155,
            13.7062387
          ],
          [
            79.5908476,
            13.7061464
          ],
          [
            79.5912974,
            13.7060829
          ],
          [
            79.5918125,
            13.7061182
          ],
          [
            79.5921535,
            13.7061816
          ],
          [
            79.5926097,
            13.7061381
          ]
        ],
        "type": "LineString"
      },
      "properties": {
        "osm_id": 1307541448,
        "name": null,
        "ref": null,
        "type": "construction",
        "oneway": 0,
        "bridge": 0,
        "maxspeed": null
      }
    },
    {
      "type": "Feature",
      "geometry": {
        "coordinates": [
          [
            79.5919135,
            13.7124757
          ],
          [
            79.5917639,
            13.7126746
          ],
          [
            79.5915225,
            13.7129612
          ],
          [
            79.591233,
            13.7132023
          ],
          [
            79.5909216,
            13.7134615
          ],
          [
            79.5893133,
            13.7148718
          ],
          [
            79.5892711,
            13.7149088
          ],
          [
            79.5889348,
            13.7152173
          ],
          [
            79.5887733,
            13.7154313
          ],
          [
            79.5887293,
            13.7154895
          ],
          [
            79.5886266,
            13.7157164
          ],
          [
            79.5885412,
            13.7160096
          ],
          [
            79.5884948,
            13.7163434
          ],
          [
            79.5881008,
            13.7190804
          ],
          [
            79.5880849,
            13.7191825
          ],
          [
            79.5880721,
            13.7192558
          ]
        ],
        "type": "LineString"
      },
      "properties": {
        "osm_id": 1307541449,
        "name": null,
        "ref": null,
        "type": "tertiary",
        "oneway": 0,
        "bridge": 0,
        "maxspeed": null
      }
    },
    {
      "type": "Feature",
      "geometry": {
        "coordinates": [
          [
            79.59524006095431,
            13.705318044374952
          ],
          [
            79.596071,
            13.7062926
          ],
          [
            79.59608611907855,
            13.706317861155664
          ]
        ],
        "type": "LineString"
      },
      "properties": {
        "osm_id": 1337338490,
        "name": "Yerpedu Bypass Under Construction",
        "ref": null,
        "type": "construction",
        "oneway": 0,
        "bridge": 0,
        "maxspeed": null
      }
    },
    {
      "type": "Feature",
      "geometry": {
        "coordinates": [
          [
            79.5953248,
            13.7148388
          ],
          [
            79.5953536,
            13.7146753
          ]
        ],
        "type": "LineString"
      },
      "properties": {
        "osm_id": 1359674662,
        "name": null,
        "ref": null,
        "type": "tertiary",
        "oneway": 1,
        "bridge": 0,
        "maxspeed": null
      }
    }
  ]
}