{
  "type": "FeatureCollection",
  "features": [
    {
      "id": "0",
      "type": "Feature",
      "properties": {
        "osm_id": 1307541401.0,
        "name": "Pond 2",
        "type": "water"
      },
      "geometry": {
        "type": "Polygon",
        "coordinates": [
          [
            [
              79.5943473,
              13.7171518
            ],
            [
              79.5942831,
              13.7171456
            ],
            [
              79.5942254,
              13.7171207
            ],
            [
              79.5941644,
              13.7170583
            ],
            [
              79.5941259,
              13.7169897
            ],
            [
              79.5941034,
              13.7169056
            ],
            [
              79.5940777,
              13.7168463
            ],
            [
              79.5940489,
              13.7167434
            ],
            [
              79.5940585,
              13.7166406
            ],
            [
              79.5940553,
              13.716547
            ],
            [
              79.5940842,
              13.7164629
            ],
            [
              79.5941066,
              13.716388
            ],
            [
              79.5941387,
              13.716307
            ],
            [
              79.5941901,
              13.7162602
            ],
            [
              79.5942542,
              13.7162166
            ],
            [
              79.5943024,
              13.7161729
            ],
            [
              79.5943537,
              13.7160576
            ],
            [
              79.5943666,
              13.7159984
            ],
            [
              79.5943537,
              13.715883
            ],
            [
              79.5943152,
              13.7157489
            ],
            [
              79.5942639,
              13.7156461
            ],
            [
              79.5942767,
              13.7155712
            ],
            [
              79.5947163,
              13.7156055
            ],
            [
              79.5947613,
              13.7155775
            ],
            [
              79.5947902,
              13.7155307
            ],
            [
              79.5947998,
              13.7154871
            ],
            [
              79.5947869,
              13.7154216
            ],
            [
              79.5947677,
              13.7153748
            ],
            [
              79.5946971,
              13.7153281
            ],
            [
              79.5946425,
              13.7153063
            ],
            [
              79.5945848,
              13.7153281
            ],
            [
              79.5944981,
              13.715353
            ],
            [
              79.5944275,
              13.715353
            ],
            [
              79.5943954,
              13.7153437
            ],
            [
              79.5943473,
              13.7153125
            ],
            [
              79.5943313,
              13.715247
            ],
            [
              79.5943248,
              13.7151878
            ],
            [
              79.5943473,
              13.7151161
            ],
            [
              79.5943858,
              13.7150756
            ],
            [
              79.5944307,
              13.7150413
            ],
            [
              79.5945238,
              13.7150007
            ],
            [
              79.5946008,
              13.7149883
            ],
            [
              79.5947035,
              13.7149945
            ],
            [
              79.5948062,
              13.715035
            ],
            [
              79.5948896,
              13.715088
            ],
            [
              79.5949731,
              13.7152127
            ],
            [
              79.5950148,
              13.7153187
            ],
            [
              79.5950084,
              13.7154341
            ],
            [
              79.5949538,
              13.7155744
            ],
            [
              79.5948736,
              13.7156648
            ],
            [
              79.5947645,
              13.7157521
            ],
            [
              79.5947324,
              13.7158019
            ],
            [
              79.5946714,
              13.7160264
            ],
            [
              79.5945848,
              13.7161012
            ],
            [
              79.5945206,
              13.7161511
            ],
            [
              79.5944949,
              13.7161916
            ],
            [
              79.5944853,
              13.7162602
            ],
            [
              79.5945013,
              13.7163039
            ],
            [
              79.594604,
              13.7163974
            ],
            [
              79.5947516,
              13.7165907
            ],
            [
              79.5947869,
              13.7166624
            ],
            [
              79.5948062,
              13.7167403
            ],
            [
              79.594803,
              13.716837
            ],
            [
              79.5947837,
              13.7169056
            ],
            [
              79.5947324,
              13.7170303
            ],
            [
              79.594681,
              13.7170708
            ],
            [
              79.5945944,
              13.7171394
            ],
            [
              79.5944564,
              13.7171768
            ],
            [
              79.5943473,
              13.7171518
            ]
          ]
        ]
      }
    },
    {
      "id": "1",
      "type": "Feature",
      "properties": {
        "osm_id": null,
        "name": null,
        "type": null
      },
      "geometry": {
        "type": "Polygon",
        "coordinates": [
          [
            [
              79.59461586107415,
              13.71311676060724
            ],
            [
              79.5941414687972,
              13.712892954573354
            ],
            [
              79.59403913014069,
              13.71284035059103
            ],
            [
              79.59398461328628,
              13.712817396126017
            ],
            [
              79.59392435781562,
              13.71280591889351
            ],
            [
              79.59387892710362,
              13.712808309983618
            ],
            [
              79.59384258253401,
              13.712812135727786
            ],
            [
              79.59380528152836,
              13.712824569396336
            ],
            [
              79.59377945775522,
              13.712838437718949
            ],
            [
              79.59375650329021,
              13.712854697131666
            ],
            [
              79.59374167853156,
              13.712865696146151
            ],
            [
              79.59366659830224,
              13.712919734782538
            ],
            [
              79.59363455769481,
              13.712953688262038
            ],
            [
              79.59361638541002,
              13.71298429421539
            ],
            [
              79.59360586461355,
              13.713024464529164
            ],
            [
              79.59359964777927,
              13.713084719999825
            ],
            [
              79.59359869134323,
              13.713123455659538
            ],
            [
              79.59359821312522,
              13.713161713101227
            ],
            [
              79.5936116032298,
              13.71319710123479
            ],
            [
              79.59362594977044,
              13.713220055699805
            ],
            [
              79.59366755473827,
              13.713275050772234
            ],
            [
              79.59369337851142,
              13.713304700289543
            ],
            [
              79.59371442010435,
              13.713317612176114
            ],
            [
              79.59373307060717,
              13.713326220100495
            ],
            [
              79.59377993597326,
              13.713356826053845
            ],
            [
              79.59381436767077,
              13.713374041902606
            ],
            [
              79.59382680133932,
              13.713377389428754
            ],
            [
              79.59386123303685,
              13.713383606263028
            ],
            [
              79.59389375186228,
              13.713385519135112
            ],
            [
              79.59391814098136,
              13.71338408448105
            ],
            [
              79.59395018158878,
              13.713382649826986
            ],
            [
              79.59397648357994,
              13.713378824082817
            ],
            [
              79.59400374200715,
              13.71337643299271
            ],
            [
              79.59401952320184,
              13.713374520120626
            ],
            [
              79.59406686678595,
              13.713376911210732
            ],
            [
              79.59413620839901,
              13.713390779533345
            ],
            [
              79.59418020445695,
              13.713404647855958
            ],
            [
              79.59421559259052,
              13.71342712410295
            ],
            [
              79.59424667676188,
              13.71344816569588
            ],
            [
              79.59428206489545,
              13.713470163724852
            ],
            [
              79.59432988669757,
              13.71350363898633
            ],
            [
              79.59436049265092,
              13.713531853849576
            ],
            [
              79.59439253325831,
              13.713569633073247
            ],
            [
              79.5944327035721,
              13.713609325169
            ],
            [
              79.59445422338304,
              13.713641843994436
            ],
            [
              79.59446761348764,
              13.713665276677471
            ],
            [
              79.59448913329858,
              13.713706881645308
            ],
            [
              79.59450634914735,
              13.713748008395125
            ],
            [
              79.59451926103391,
              13.713792004453069
            ],
            [
              79.59453982440883,
              13.713843173781328
            ],
            [
              79.59457043036218,
              13.713896255981672
            ],
            [
              79.59459099373709,
              13.713934513423363
            ],
            [
              79.59463785910317,
              13.713987117405686
            ],
            [
              79.59470337497207,
              13.714041634260093
            ],
            [
              79.59475310964628,
              13.714073674867509
            ],
            [
              79.59478228094557,
              13.714089456062206
            ],
            [
              79.59482771165754,
              13.71410810656503
            ],
            [
              79.59487218593351,
              13.71412484419577
            ],
            [
              79.59490613941301,
              13.714132973902128
            ],
            [
              79.59494774438085,
              13.714136799646298
            ],
            [
              79.59501278203172,
              13.714135843210254
            ],
            [
              79.59506682066811,
              13.714133930338171
            ],
            [
              79.5951141642522,
              13.714131061030043
            ],
            [
              79.59519067913558,
              13.714114801617326
            ],
            [
              79.59523993559176,
              13.714094238242417
            ],
            [
              79.5952858445218,
              13.714073196649489
            ],
            [
              79.5953087989868,
              13.714057893672813
            ],
            [
              79.59537718416385,
              13.714013897614867
            ],
            [
              79.59542309309387,
              13.713983291661515
            ],
            [
              79.59545322082921,
              13.713946947091909
            ],
            [
              79.59546995845994,
              13.713922079754811
            ],
            [
              79.59547856638433,
              13.713905820342093
            ],
            [
              79.59551538917196,
              13.713843173781328
            ],
            [
              79.59552495353239,
              13.713808742083806
            ],
            [
              79.59553164858468,
              13.7137542252294
            ],
            [
              79.59553260502074,
              13.713713098479582
            ],
            [
              79.59552112778822,
              13.713649017264752
            ],
            [
              79.59549434757903,
              13.713583023177836
            ],
            [
              79.59546852380588,
              13.713527549887388
            ],
            [
              79.59542261487584,
              13.71348546670153
            ],
            [
              79.59540157328293,
              13.713466337980684
            ],
            [
              79.59535662078893,
              13.71343477559129
            ],
            [
              79.59532792770767,
              13.713412777562318
            ],
            [
              79.5952925395741,
              13.713386953789177
            ],
            [
              79.59509168800523,
              13.713270268592023
            ],
            [
              79.59479710570423,
              13.713173668551756
            ],
            [
              79.59461586107415,
              13.71311676060724
            ]
          ]
        ]
      }
    },
    {
      "id": "2",
      "type": "Feature",
      "properties": {
        "osm_id": null,
        "name": null,
        "type": null
      },
      "geometry": {
        "type": "Polygon",
        "coordinates": [
          [
            [
              79.59620402312243,
              13.709438785806768
            ],
            [
              79.59613898547155,
              13.709568861108513
            ],
            [
              79.5961083795182,
              13.709662591840653
            ],
            [
              79.5960969022857,
              13.7097677998053
            ],
            [
              79.59610264090195,
              13.70982709883992
            ],
            [
              79.59612368249488,
              13.709892136490792
            ],
            [
              79.59614042012565,
              13.70993852363884
            ],
            [
              79.59614998448606,
              13.709974389990425
            ],
            [
              79.59615046270409,
              13.7099896929671
            ],
            [
              79.59615046270409,
              13.710004517725755
            ],
            [
              79.59614998448606,
              13.710016951394303
            ],
            [
              79.59614424586981,
              13.710039427641297
            ],
            [
              79.59614137656169,
              13.710051861309847
            ],
            [
              79.59608207752707,
              13.710188153445866
            ],
            [
              79.59607203494863,
              13.71021589009109
            ],
            [
              79.59606964385853,
              13.710226889105577
            ],
            [
              79.59604190721326,
              13.710329705980111
            ],
            [
              79.59602277849243,
              13.71043108820059
            ],
            [
              79.59601417056804,
              13.71048273574687
            ],
            [
              79.59600269333554,
              13.710523862496688
            ],
            [
              79.59599408541115,
              13.710551599141914
            ],
            [
              79.59597878243447,
              13.710589856583603
            ],
            [
              79.59597113094614,
              13.710604203124236
            ],
            [
              79.59594435073697,
              13.710650112054264
            ],
            [
              79.59592426558008,
              13.710676892263447
            ],
            [
              79.59591757052779,
              13.710689325931996
            ],
            [
              79.5959108754755,
              13.710711323960968
            ],
            [
              79.59590800616736,
              13.71073810417015
            ],
            [
              79.59590704973132,
              13.710762971507249
            ],
            [
              79.59590896260342,
              13.71077636161184
            ],
            [
              79.59590800616736,
              13.71089974186129
            ],
            [
              79.5959084843854,
              13.711030534490067
            ],
            [
              79.59590561507727,
              13.711071183021863
            ],
            [
              79.59591231012956,
              13.7111127879897
            ],
            [
              79.59591900518187,
              13.711136220672735
            ],
            [
              79.59592617845217,
              13.711145785033157
            ],
            [
              79.59593717746667,
              13.711152958303474
            ],
            [
              79.59595630618752,
              13.711163000881918
            ],
            [
              79.59597208738221,
              13.711170174152235
            ],
            [
              79.59599169432107,
              13.711178303858594
            ],
            [
              79.59600938838786,
              13.711188346437037
            ],
            [
              79.59601608344015,
              13.711190737527144
            ],
            [
              79.5960242131465,
              13.711197910797459
            ],
            [
              79.59602803889068,
              13.711203171195692
            ],
            [
              79.59603329928892,
              13.711212735556115
            ],
            [
              79.59603664681507,
              13.711228038532791
            ],
            [
              79.59603664681507,
              13.711240950419361
            ],
            [
              79.59603569037901,
              13.711249558343741
            ],
            [
              79.59603138641683,
              13.711259122704163
            ],
            [
              79.5960261260186,
              13.711267252410522
            ],
            [
              79.59601608344015,
              13.71127442568084
            ],
            [
              79.59598356461471,
              13.71127777320699
            ],
            [
              79.5959651532209,
              13.711274186571831
            ],
            [
              79.59594435073697,
              13.71126940439162
            ],
            [
              79.59593526459457,
              13.711270121718652
            ],
            [
              79.59592641756119,
              13.711272512808756
            ],
            [
              79.59592163538098,
              13.711280403406105
            ],
            [
              79.5959178096368,
              13.711300010344972
            ],
            [
              79.59591637498274,
              13.711310052923416
            ],
            [
              79.59591517943768,
              13.711323682137017
            ],
            [
              79.59591278834758,
              13.711336594023587
            ],
            [
              79.59590728884034,
              13.71135022323719
            ],
            [
              79.59590226755112,
              13.71135452719938
            ],
            [
              79.59589605071685,
              13.711361222251675
            ],
            [
              79.59589294229971,
              13.71136289601475
            ],
            [
              79.59588935566455,
              13.71136313512376
            ],
            [
              79.59587979130413,
              13.711360744033655
            ],
            [
              79.59586664030854,
              13.711355483635423
            ],
            [
              79.59578725611703,
              13.711309096487373
            ],
            [
              79.59576095412591,
              13.711297619254868
            ],
            [
              79.5957360867888,
              13.711294749946742
            ],
            [
              79.59572795708245,
              13.711295706382785
            ],
            [
              79.59571695806795,
              13.7113028796531
            ],
            [
              79.59570595905348,
              13.711313400449566
            ],
            [
              79.59569830756513,
              13.711323443028009
            ],
            [
              79.59568969964076,
              13.711340180658748
            ],
            [
              79.59564857289094,
              13.711418130196192
            ],
            [
              79.5955624936471,
              13.7117036263548
            ],
            [
              79.5954811965835,
              13.71195229972578
            ],
            [
              79.59547796861187,
              13.711964374730814
            ],
            [
              79.59547414286773,
              13.711976569290352
            ],
            [
              79.59547533841277,
              13.711986133650775
            ],
            [
              79.59547749039388,
              13.711990437612965
            ],
            [
              79.59548155524705,
              13.711995937120207
            ],
            [
              79.59548753297231,
              13.712000241082396
            ],
            [
              79.59549590178769,
              13.712005501480629
            ],
            [
              79.59552053001578,
              13.712016978713136
            ],
            [
              79.59552985526719,
              13.712022717329388
            ],
            [
              79.5955348765564,
              13.712026064855536
            ],
            [
              79.5955367894285,
              13.712028216836632
            ],
            [
              79.59553870230057,
              13.71203156436278
            ],
            [
              79.59554013695464,
              13.712037542088042
            ],
            [
              79.59554013695464,
              13.712042802486275
            ],
            [
              79.59553870230057,
              13.71205308417373
            ],
            [
              79.59553750675552,
              13.71205714902691
            ],
            [
              79.59553439833839,
              13.712065039624257
            ],
            [
              79.59553105081224,
              13.712071734676552
            ],
            [
              79.59551407407245,
              13.712078668837858
            ],
            [
              79.59550020574984,
              13.71209205894245
            ],
            [
              79.5954949453516,
              13.712095884686619
            ],
            [
              79.59548633742722,
              13.712106405483082
            ],
            [
              79.59547964237493,
              13.71211836093361
            ],
            [
              79.59547294732263,
              13.712136533218413
            ],
            [
              79.59547151266857,
              13.712150401541026
            ],
            [
              79.5954719908866,
              13.712167617389786
            ],
            [
              79.59548203346503,
              13.712200136215221
            ],
            [
              79.5954834681191,
              13.712203961959391
            ],
            [
              79.59549829287775,
              13.712226438206383
            ],
            [
              79.59550690080214,
              13.712234567912741
            ],
            [
              79.59551072654631,
              13.712238871874932
            ],
            [
              79.59551407407245,
              13.712246045145248
            ],
            [
              79.59551646516256,
              13.712253218415565
            ],
            [
              79.59551694338057,
              13.712262782775987
            ],
            [
              79.5955150305085,
              13.712270434264324
            ],
            [
              79.59551263941839,
              13.712274260008494
            ],
            [
              79.59551024832828,
              13.712276172880578
            ],
            [
              79.59550498793004,
              13.712276172880578
            ],
            [
              79.59550211862192,
              13.712276172880578
            ],
            [
              79.59549972753182,
              13.712276172880578
            ],
            [
              79.59548633742722,
              13.712279042188705
            ],
            [
              79.59547868593889,
              13.712281433278811
            ],
            [
              79.59546433939825,
              13.712288606549127
            ],
            [
              79.59544855820356,
              13.712312995668203
            ],
            [
              79.59543947206116,
              13.712330211516964
            ],
            [
              79.5954337334449,
              13.71234599271166
            ],
            [
              79.5954294294827,
              13.712368947176673
            ],
            [
              79.5954270383926,
              13.712386641243455
            ],
            [
              79.59541125719794,
              13.712440201661819
            ],
            [
              79.59538638986085,
              13.712525324469576
            ],
            [
              79.59537013044813,
              13.712590362120448
            ],
            [
              79.59536630470396,
              13.712627663126094
            ],
            [
              79.59535482747145,
              13.712679310672375
            ],
            [
              79.59535100172728,
              13.712717568114064
            ],
            [
              79.59535865321563,
              13.712739566143036
            ],
            [
              79.59537491262834,
              13.712769215660344
            ],
            [
              79.59538925916897,
              13.712785475073062
            ],
            [
              79.59541699581419,
              13.712808429538075
            ],
            [
              79.59542751661066,
              13.712816081026414
            ],
            [
              79.59552029090676,
              13.712863902828525
            ],
            [
              79.59559776222618,
              13.712894508781876
            ],
            [
              79.59564271472017,
              13.712917463246889
            ],
            [
              79.59567140780143,
              13.712923201863141
            ],
            [
              79.59570775237104,
              13.71291841968293
            ],
            [
              79.5957249682198,
              13.712905986014382
            ],
            [
              79.59575461773711,
              13.712878249369156
            ],
            [
              79.59578809299859,
              13.712830427567045
            ],
            [
              79.59586173857383,
              13.712712785933851
            ],
            [
              79.59591888562734,
              13.712593948755606
            ],
            [
              79.59592797176974,
              13.712562864584234
            ],
            [
              79.59592797176974,
              13.712545170517453
            ],
            [
              79.59592749355173,
              13.712532736848903
            ],
            [
              79.5959246242436,
              13.712520303180355
            ],
            [
              79.59591745097327,
              13.7125054784217
            ],
            [
              79.59591123413901,
              13.712495914061277
            ],
            [
              79.59590788661286,
              13.712491610099088
            ],
            [
              79.59589880047045,
              13.712485393264814
            ],
            [
              79.59588875789201,
              13.712483480392729
            ],
            [
              79.59587584600544,
              13.712482523956687
            ],
            [
              79.59587010738919,
              13.712482523956687
            ],
            [
              79.59586102124679,
              13.712483002174707
            ],
            [
              79.59585528263054,
              13.712484915046792
            ],
            [
              79.59584189252594,
              13.712486349700855
            ],
            [
              79.59583424103761,
              13.712486349700855
            ],
            [
              79.59582228558708,
              13.712485393264814
            ],
            [
              79.5958136776627,
              13.71248395861075
            ],
            [
              79.59580841726446,
              13.712481567520644
            ],
            [
              79.59580267864821,
              13.712473916032307
            ],
            [
              79.59580220043019,
              13.712464351671885
            ],
            [
              79.59580650439239,
              13.712459569491672
            ],
            [
              79.595820372715,
              13.712452874439377
            ],
            [
              79.59585480441251,
              13.71244139720687
            ],
            [
              79.59590071334254,
              13.71243661502666
            ],
            [
              79.59591649453724,
              13.712435658590618
            ],
            [
              79.5959518826708,
              13.712427050666237
            ],
            [
              79.59596957673759,
              13.712421312049985
            ],
            [
              79.59599205298458,
              13.712396922930907
            ],
            [
              79.5960059213072,
              13.712375881337978
            ],
            [
              79.59601357279553,
              13.712358665489218
            ],
            [
              79.59602170250189,
              13.712340493204415
            ],
            [
              79.59602600646407,
              13.71232566844576
            ],
            [
              79.59622303228878,
              13.711682465207362
            ],
            [
              79.59625507289618,
              13.71160786319607
            ],
            [
              79.59627085409089,
              13.71159064734731
            ],
            [
              79.59627467983506,
              13.71158634338512
            ],
            [
              79.59628328775943,
              13.711580604768866
            ],
            [
              79.59629859073611,
              13.711568171100318
            ],
            [
              79.59630911153258,
              13.71155621564979
            ],
            [
              79.5963277620354,
              13.71153469583884
            ],
            [
              79.59633158777957,
              13.711528479004565
            ],
            [
              79.59634115213998,
              13.71150935028372
            ],
            [
              79.59642197098556,
              13.71125493829649
            ],
            [
              79.59652957004032,
              13.71087427675168
            ],
            [
              79.59658886907494,
              13.710664817258436
            ],
            [
              79.59660991066787,
              13.710584476630888
            ],
            [
              79.59661373641202,
              13.710521351852101
            ],
            [
              79.59660608492369,
              13.710437185480385
            ],
            [
              79.59659843343536,
              13.710395102294527
            ],
            [
              79.59658695620286,
              13.710247811144026
            ],
            [
              79.59658695620286,
              13.710184686365238
            ],
            [
              79.59659078194703,
              13.71007756552851
            ],
            [
              79.59659460769119,
              13.7100048763893
            ],
            [
              79.59658886907494,
              13.709872888215472
            ],
            [
              79.59658695620286,
              13.70979446046001
            ],
            [
              79.59659843343536,
              13.709664385158266
            ],
            [
              79.59661373641204,
              13.70961847622824
            ],
            [
              79.59661564928412,
              13.709559177193622
            ],
            [
              79.59661373641204,
              13.70949031379858
            ],
            [
              79.59660034630744,
              13.7094386662523
            ],
            [
              79.5965812175866,
              13.709388931578104
            ],
            [
              79.5965582631216,
              13.709356412752669
            ],
            [
              79.59652957004032,
              13.709327719671402
            ],
            [
              79.59645688090112,
              13.709302852334304
            ],
            [
              79.59644157792444,
              13.709302852334304
            ],
            [
              79.59638610463399,
              13.709297113718051
            ],
            [
              79.59634210857604,
              13.709295200845967
            ],
            [
              79.59629428677394,
              13.709300939462219
            ],
            [
              79.59627324518101,
              13.70932198105515
            ],
            [
              79.59626368082058,
              13.709333458287656
            ],
            [
              79.59620402312243,
              13.709438785806768
            ]
          ]
        ]
      }
    }
  ]
}